{"type": "FeatureCollection", "features": [{"type": "Feature", "geometry": {"type": "Point", "coordinates": [-9.568, 30.099]}, "properties": {"sur_l_eau": null, "altitude_m": 60, "denivele_10km_m": 160, "pente_pct": 2.4, "d_halakhel_km": 283, "d_ocean_km": 2, "d_lac_km": 2490, "d_cours_eau_km": 26, "fleuve_nomme": null, "debit_proche_m3s": 28, "pluie_mm": 1411, "T_annuelle_C": 19.0, "Tw_hiver_C": 9.0, "Tn_nuit_hiver_C": 1.0, "facies_arin": "hiver pluvieux tempéré", "milieu_site": "fourre_cotier_sec", "milieux_25km": "{\"fourre_cotier_sec\": 54, \"océan\": 40, \"hors Beliet\": 5}", "col_proche": "{\"geo_id\": \"GEO_COL_038\", \"nom\": \"Hlenik-k'eso\", \"altitude_m\": 2000, \"distance_km\": 831, \"ouverture\": [4, 11]}", "expositions_calculees": "tempêtes et houle de rivage", "id": "LUR_KHLORETH-KLAM_NO", "nom": "Khloreth-klam", "type": "LUR", "facade": "ATL_NO", "confiance": "haute", "note": "Terminus atlantique du portage le plus court vers l'Halakhel (ALN-033) ; baie basse abritée (Agadir réel), propice aux digues et à l'accostage.", "ecarts_corpus": 0, "statut": "[PROPOSITION]"}}, {"type": "Feature", "geometry": {"type": "Point", "coordinates": [-10.03, 29.296]}, "properties": {"sur_l_eau": null, "altitude_m": 366, "denivele_10km_m": 816, "pente_pct": 13.3, "d_halakhel_km": 267, "d_ocean_km": 2, "d_lac_km": 2463, "d_cours_eau_km": 102, "fleuve_nomme": null, "debit_proche_m3s": 6, "pluie_mm": 1245, "T_annuelle_C": 17.5, "Tw_hiver_C": 7.7, "Tn_nuit_hiver_C": -0.3, "facies_arin": "hiver pluvieux tempéré", "milieu_site": "littoral_rocheux", "milieux_25km": "{\"océan\": 32, \"fourre_cotier_sec\": 24, \"hors Beliet\": 15, \"herbage_arbore\": 12}", "col_proche": "{\"geo_id\": \"GEO_COL_038\", \"nom\": \"Hlenik-k'eso\", \"altitude_m\": 2000, \"distance_km\": 749, \"ouverture\": [4, 11]}", "expositions_calculees": "tempêtes et houle de rivage", "id": "LUR_STALOMAR-KOT_NO", "nom": "Stalomar-Kot", "type": "LUR", "facade": "ATL_NO", "confiance": "haute", "note": "Falaises granitiques : la côte rocheuse la plus haute de la façade (rebord de l'Anti-Atlas, granites réels d'Ifni-Kerdous), à 75 km de Khloreth-klam (déroutement du pilote en 1342).", "ecarts_corpus": 0, "statut": "[PROPOSITION]"}}, {"type": "Feature", "geometry": {"type": "Point", "coordinates": [-8.532, 28.976]}, "properties": {"sur_l_eau": null, "altitude_m": 364, "denivele_10km_m": 456, "pente_pct": 2.3, "d_halakhel_km": 128, "d_ocean_km": 141, "d_lac_km": 2357, "d_cours_eau_km": 32, "fleuve_nomme": null, "debit_proche_m3s": 66, "pluie_mm": 546, "T_annuelle_C": 17.7, "Tw_hiver_C": 8.0, "Tn_nuit_hiver_C": -0.0, "facies_arin": "Hiver Gris", "milieu_site": "steppe_piemont", "milieux_25km": "{\"steppe_piemont\": 59, \"herbage_arbore\": 36}", "col_proche": "{\"geo_id\": \"GEO_COL_038\", \"nom\": \"Hlenik-k'eso\", \"altitude_m\": 2000, \"distance_km\": 702, \"ouverture\": [4, 11]}", "expositions_calculees": "", "id": "LUR_STAKHR-DUREK_NO", "nom": "Stakhr-Durek", "type": "LUR", "facade": "ATL_NO", "confiance": "haute", "note": "Pôle du portage, à mi-chemin de Khloreth-klam et de Kralekh-Aktrik (rupture de charge de RT_027).", "ecarts_corpus": 3, "statut": "[PROPOSITION]"}}, {"type": "Feature", "geometry": {"type": "Point", "coordinates": [-8.054, 29.601]}, "properties": {"sur_l_eau": null, "altitude_m": 529, "denivele_10km_m": 481, "pente_pct": 3.1, "d_halakhel_km": 153, "d_ocean_km": 154, "d_lac_km": 2373, "d_cours_eau_km": 115, "fleuve_nomme": null, "debit_proche_m3s": 18, "pluie_mm": 479, "T_annuelle_C": 16.4, "Tw_hiver_C": 6.5, "Tn_nuit_hiver_C": -1.5, "facies_arin": "Hiver Gris", "milieu_site": "steppe_piemont", "milieux_25km": "{\"steppe_piemont\": 85, \"herbage_arbore\": 14}", "col_proche": "{\"geo_id\": \"GEO_COL_038\", \"nom\": \"Hlenik-k'eso\", \"altitude_m\": 2000, \"distance_km\": 774, \"ouverture\": [4, 11]}", "expositions_calculees": "", "id": "LUR_HLORAN-RIR_NO", "nom": "Hloran-rir", "type": "LUR", "facade": "ATL_NO", "confiance": "haute", "note": "Oasis-étape à résurgence au pied du rebord montagneux (drains d'altitude), sur le corridor du portage (oasis réelles de Tata-Akka).", "ecarts_corpus": 2, "statut": "[PROPOSITION]"}}, {"type": "Feature", "geometry": {"type": "Point", "coordinates": [-8.58, 29.352]}, "properties": {"sur_l_eau": null, "altitude_m": 855, "denivele_10km_m": 525, "pente_pct": 0.9, "d_halakhel_km": 158, "d_ocean_km": 116, "d_lac_km": 2385, "d_cours_eau_km": 70, "fleuve_nomme": null, "debit_proche_m3s": 11, "pluie_mm": 701, "T_annuelle_C": 14.6, "Tw_hiver_C": 4.8, "Tn_nuit_hiver_C": -3.2, "facies_arin": "hiver pluvieux tempéré", "milieu_site": "steppe_piemont", "milieux_25km": "{\"herbage_arbore\": 55, \"foret_montagne\": 27, \"steppe_piemont\": 18}", "col_proche": "{\"geo_id\": \"GEO_COL_038\", \"nom\": \"Hlenik-k'eso\", \"altitude_m\": 2000, \"distance_km\": 743, \"ouverture\": [4, 11]}", "expositions_calculees": "", "id": "ZRS_FALAMI_SKREN_PERIPH_NO", "nom": "Oase-Skren", "type": "ZRS", "facade": "ATL_NO", "confiance": "haute", "note": "Résurgence secondaire hors registre, à l'écart du corridor certifié, à moins d'une étape de Hloran-rir.", "ecarts_corpus": 1, "statut": "[PROPOSITION]"}}, {"type": "Feature", "geometry": {"type": "Point", "coordinates": [0.057, 5.619]}, "properties": {"sur_l_eau": null, "altitude_m": 7, "denivele_10km_m": 114, "pente_pct": 1.0, "d_halakhel_km": 2272, "d_ocean_km": 2, "d_lac_km": 685, "d_cours_eau_km": 32, "fleuve_nomme": null, "debit_proche_m3s": 40, "pluie_mm": 2656, "T_annuelle_C": 27.5, "Tw_hiver_C": 23.0, "Tn_nuit_hiver_C": 15.0, "facies_arin": "hors |'Arin", "milieu_site": "foret_maree", "milieux_25km": "{\"océan\": 47, \"foret_tropicale_humide\": 43, \"foret_maree\": 11}", "col_proche": "{\"geo_id\": \"GEO_COL_024\", \"nom\": \"Ku-Pámà-Tɨra-te\", \"altitude_m\": 2000, \"distance_km\": 1189, \"ouverture\": [4, 11]}", "expositions_calculees": "tempêtes et houle de rivage", "id": "LUR_KU-JALIMA-RIR_SO", "nom": "Ku-jálima-rir", "type": "LUR", "facade": "ATL_SO", "confiance": "haute", "note": "Grand port atlantique dans les mangroves du golfe, à l'ouest du delta du Mopámà ; relié au delta par les lagunes (RT_060 fluvial, lagune de Keta réelle).", "ecarts_corpus": 0, "statut": "[PROPOSITION]"}}, {"type": "Feature", "geometry": {"type": "Point", "coordinates": [1.013, 5.92]}, "properties": {"sur_l_eau": null, "altitude_m": 17, "denivele_10km_m": 61, "pente_pct": 0.1, "d_halakhel_km": 2237, "d_ocean_km": 4, "d_lac_km": 581, "d_cours_eau_km": 2, "fleuve_nomme": "GEO_FLV_EMISSAIRE_MOPAMA", "debit_proche_m3s": 2550, "pluie_mm": 2375, "T_annuelle_C": 27.4, "Tw_hiver_C": 22.9, "Tn_nuit_hiver_C": 14.9, "facies_arin": "hors |'Arin", "milieu_site": "foret_tropicale_humide", "milieux_25km": "{\"foret_tropicale_humide\": 51, \"océan\": 37, \"foret_maree\": 11}", "col_proche": "{\"geo_id\": \"GEO_COL_024\", \"nom\": \"Ku-Pámà-Tɨra-te\", \"altitude_m\": 2000, \"distance_km\": 1091, \"ouverture\": [4, 11]}", "expositions_calculees": "crues (lit majeur); tempêtes et houle de rivage", "id": "LUR_JALI-FE_SO", "nom": "Jáli-Fè", "type": "LUR", "facade": "ATL_SO", "confiance": "haute", "note": "Cité des bassins d'eau douce du delta (« delta de Jáli-Fè », GEO §V.4) : sur le delta du Mopámà, entre l'anse Jálondù et les mangroves de Ku-jálima-rir.", "ecarts_corpus": 1, "statut": "[PROPOSITION]"}}, {"type": "Feature", "geometry": {"type": "Point", "coordinates": [-0.756, 5.206]}, "properties": {"sur_l_eau": null, "altitude_m": 2, "denivele_10km_m": 86, "pente_pct": 0.8, "d_halakhel_km": 2323, "d_ocean_km": 2, "d_lac_km": 785, "d_cours_eau_km": 25, "fleuve_nomme": null, "debit_proche_m3s": 71, "pluie_mm": 2923, "T_annuelle_C": 27.5, "Tw_hiver_C": 23.1, "Tn_nuit_hiver_C": 15.1, "facies_arin": "hors |'Arin", "milieu_site": "foret_maree", "milieux_25km": "{\"océan\": 51, \"foret_tropicale_humide\": 34, \"foret_maree\": 16}", "col_proche": "{\"geo_id\": \"GEO_COL_024\", \"nom\": \"Ku-Pámà-Tɨra-te\", \"altitude_m\": 2000, \"distance_km\": 1286, \"ouverture\": [4, 11]}", "expositions_calculees": "tempêtes et houle de rivage", "id": "LUR_ANSES-JALONDU_SO", "nom": "Anses-Jálondù", "type": "LUR", "facade": "ATL_SO", "confiance": "haute", "note": "Anse du golfe Jálondù, face à l'archipel Li-sèk-dì (ZRS drainée) ; mangroves.", "ecarts_corpus": 0, "statut": "[PROPOSITION]"}}, {"type": "Feature", "geometry": {"type": "Point", "coordinates": [2.447, 6.364]}, "properties": {"sur_l_eau": null, "altitude_m": -5, "denivele_10km_m": 99, "pente_pct": 1.9, "d_halakhel_km": 2195, "d_ocean_km": 2, "d_lac_km": 431, "d_cours_eau_km": 46, "fleuve_nomme": null, "debit_proche_m3s": 88, "pluie_mm": 2646, "T_annuelle_C": 27.5, "Tw_hiver_C": 22.9, "Tn_nuit_hiver_C": 14.9, "facies_arin": "hors |'Arin", "milieu_site": "foret_tropicale_humide", "milieux_25km": "{\"foret_tropicale_humide\": 56, \"océan\": 44}", "col_proche": "{\"geo_id\": \"GEO_COL_024\", \"nom\": \"Ku-Pámà-Tɨra-te\", \"altitude_m\": 2000, \"distance_km\": 950, \"ouverture\": [4, 11]}", "expositions_calculees": "tempêtes et houle de rivage", "id": "LUR_JALI-LONGO_SO", "nom": "Jáli-lòngò", "type": "LUR", "facade": "ATL_SO", "confiance": "haute", "note": "Débouché côtier des forêts-galeries du SO (Ku-ùmanà), à l'est du delta, où la côte se relève (quais de basalte importé).", "ecarts_corpus": 0, "statut": "[PROPOSITION]"}}, {"type": "Feature", "geometry": {"type": "Point", "coordinates": [1.443, 6.443]}, "properties": {"sur_l_eau": null, "altitude_m": 6, "denivele_10km_m": 3, "pente_pct": 0.0, "d_halakhel_km": 2178, "d_ocean_km": 33, "d_lac_km": 507, "d_cours_eau_km": 0, "fleuve_nomme": "GEO_FLV_EMISSAIRE_MOPAMA", "debit_proche_m3s": 80, "pluie_mm": 2155, "T_annuelle_C": 27.5, "Tw_hiver_C": 22.8, "Tn_nuit_hiver_C": 14.8, "facies_arin": "hors |'Arin", "milieu_site": "foret_tropicale_humide", "milieux_25km": "{\"foret_tropicale_humide\": 100}", "col_proche": "{\"geo_id\": \"GEO_COL_024\", \"nom\": \"Ku-Pámà-Tɨra-te\", \"altitude_m\": 2000, \"distance_km\": 1017, \"ouverture\": [4, 11]}", "expositions_calculees": "crues (lit majeur)", "id": "LUR_GALU-KANDA_SO", "nom": "Gálu-kánda", "type": "LUR", "facade": "ATL_SO", "confiance": "haute", "note": "Cales navales sur l'émissaire du Mopámà, à la tête du delta : en aval du parc à bois de Ku-sáladì (flottage), accessibles aux coques de mer.", "ecarts_corpus": 0, "statut": "[PROPOSITION]"}}, {"type": "Feature", "geometry": {"type": "Point", "coordinates": [-1.25, 4.714]}, "properties": {"sur_l_eau": null, "altitude_m": 18, "denivele_10km_m": 71, "pente_pct": 0.5, "d_halakhel_km": 2383, "d_ocean_km": 2, "d_lac_km": 862, "d_cours_eau_km": 48, "fleuve_nomme": null, "debit_proche_m3s": 0, "pluie_mm": 2930, "T_annuelle_C": 27.4, "Tw_hiver_C": 23.1, "Tn_nuit_hiver_C": 15.1, "facies_arin": "hors |'Arin", "milieu_site": "foret_maree", "milieux_25km": "{\"océan\": 100}", "col_proche": "{\"geo_id\": \"GEO_COL_024\", \"nom\": \"Ku-Pámà-Tɨra-te\", \"altitude_m\": 2000, \"distance_km\": 1363, \"ouverture\": [4, 11]}", "expositions_calculees": "tempêtes et houle de rivage", "id": "ZRS_LISEKDI_SO", "nom": "Li-sèk-dì", "type": "ZRS", "facade": "ATL_SO", "confiance": "haute", "note": "Îlots secs au large de l'anse Jálondù (ALN-008).", "ecarts_corpus": 1, "statut": "[PROPOSITION]"}}, {"type": "Feature", "geometry": {"type": "Point", "coordinates": [-24.994, 16.884]}, "properties": {"sur_l_eau": null, "altitude_m": 2, "denivele_10km_m": 430, "pente_pct": 1.4, "d_halakhel_km": 2164, "d_ocean_km": 2, "d_lac_km": 3285, "d_cours_eau_km": 906, "fleuve_nomme": null, "debit_proche_m3s": 1, "pluie_mm": 543, "T_annuelle_C": 25.3, "Tw_hiver_C": 18.3, "Tn_nuit_hiver_C": 10.3, "facies_arin": "hors |'Arin", "milieu_site": "ile_aride", "milieux_25km": "{\"océan\": 71, \"ile_aride\": 29}", "col_proche": "{\"geo_id\": \"GEO_COL_019\", \"nom\": \"Ku-Mázì-Klek-te\", \"altitude_m\": 1900, \"distance_km\": 1190, \"ouverture\": [4, 11]}", "expositions_calculees": "tempêtes et houle de rivage", "id": "LUR_KOT-SKRAL_LARGE", "nom": "Kot-Skral", "type": "LUR", "facade": "ATL_INS", "confiance": "haute", "note": "Skral-Kot (« Rocher de la Baleine ») = São Vicente réel : promontoire et vasques au-dessus d'une baie profonde (cétacés).", "ecarts_corpus": 0, "statut": "[PROPOSITION]"}}, {"type": "Feature", "geometry": {"type": "Point", "coordinates": [-22.906, 16.166]}, "properties": {"sur_l_eau": null, "altitude_m": 1, "denivele_10km_m": 178, "pente_pct": 0.6, "d_halakhel_km": 2038, "d_ocean_km": 2, "d_lac_km": 3062, "d_cours_eau_km": 674, "fleuve_nomme": null, "debit_proche_m3s": 1, "pluie_mm": 519, "T_annuelle_C": 25.6, "Tw_hiver_C": 18.8, "Tn_nuit_hiver_C": 10.8, "facies_arin": "hors |'Arin", "milieu_site": "ile_aride", "milieux_25km": "{\"océan\": 72, \"ile_aride\": 28}", "col_proche": "{\"geo_id\": \"GEO_COL_019\", \"nom\": \"Ku-Mázì-Klek-te\", \"altitude_m\": 1900, \"distance_km\": 1020, \"ouverture\": [4, 11]}", "expositions_calculees": "tempêtes et houle de rivage", "id": "LUR_THRESKOL-STRAKH_LARGE", "nom": "Threskōl-Strakh", "type": "LUR", "facade": "ATL_INS", "confiance": "haute", "note": "Strakh-Kot (« Rocher de l'Abîme », plus grande île du sous-groupe aride, tabulaire) = Boa Vista réel.", "ecarts_corpus": 0, "statut": "[PROPOSITION]"}}, {"type": "Feature", "geometry": {"type": "Point", "coordinates": [-1.983, 29.671]}, "properties": {"sur_l_eau": null, "altitude_m": 107, "denivele_10km_m": 215, "pente_pct": 3.6, "d_halakhel_km": 2, "d_ocean_km": 613, "d_lac_km": 2094, "d_cours_eau_km": 472, "fleuve_nomme": null, "debit_proche_m3s": 0, "pluie_mm": 194, "T_annuelle_C": 18.9, "Tw_hiver_C": 9.0, "Tn_nuit_hiver_C": -1.7, "facies_arin": "Hiver de Vapeur", "milieu_site": "littoral_rocheux", "milieux_25km": "{\"mer Halakhel\": 64, \"desert_pierreux\": 30}", "col_proche": "{\"geo_id\": \"GEO_COL_043\", \"nom\": \"Halek-t'ama\", \"altitude_m\": 1900, \"distance_km\": 676, \"ouverture\": [4, 11]}", "expositions_calculees": "brouillards d'évaporation (Hiver de Vapeur); tempêtes et houle de rivage", "id": "LUR_KRETH-NA-SEREK_N", "nom": "Khreth-na-Serek", "type": "LUR", "facade": "HKL_N", "confiance": "haute", "note": "Sur la rive ouest de la passe Khreth-na-Serek (« entre côtes NO et promontoire N »), falaises calcaires.", "ecarts_corpus": 0, "statut": "[PROPOSITION]"}}, {"type": "Feature", "geometry": {"type": "Point", "coordinates": [-1.632, 30.772]}, "properties": {"sur_l_eau": null, "altitude_m": -27, "denivele_10km_m": 133, "pente_pct": 1.1, "d_halakhel_km": 3, "d_ocean_km": 486, "d_lac_km": 2172, "d_cours_eau_km": 449, "fleuve_nomme": null, "debit_proche_m3s": 0, "pluie_mm": 116, "T_annuelle_C": 19.1, "Tw_hiver_C": 8.9, "Tn_nuit_hiver_C": -2.9, "facies_arin": "Hiver de Vapeur", "milieu_site": "desert_pierreux", "milieux_25km": "{\"desert_pierreux\": 68, \"mer Halakhel\": 23, \"desert_sableux\": 9}", "col_proche": "{\"geo_id\": \"GEO_COL_043\", \"nom\": \"Halek-t'ama\", \"altitude_m\": 1900, \"distance_km\": 789, \"ouverture\": [4, 11]}", "expositions_calculees": "brouillards d'évaporation (Hiver de Vapeur); ensablement (sables à moins de 25 km); tempêtes et houle de rivage; aridité (< 150 mm)", "id": "LUR_SEREKH-KHEM_N", "nom": "Serékh-khem", "type": "LUR", "facade": "HKL_N", "confiance": "haute", "note": "Fond du golfe de Serek, derrière la passe : port de la rive N exposé aux brumes de la mer intérieure.", "ecarts_corpus": 0, "statut": "[PROPOSITION]"}}, {"type": "Feature", "geometry": {"type": "Point", "coordinates": [-1.728, 30.25]}, "properties": {"sur_l_eau": "mer Halakhel", "altitude_m": null, "denivele_10km_m": 112, "pente_pct": 1.3, "d_halakhel_km": 0, "d_ocean_km": 546, "d_lac_km": 2133, "d_cours_eau_km": 505, "fleuve_nomme": null, "debit_proche_m3s": 0, "pluie_mm": 168, "T_annuelle_C": 19.3, "Tw_hiver_C": 9.3, "Tn_nuit_hiver_C": -1.8, "facies_arin": "Hiver de Vapeur", "milieu_site": "mer Halakhel", "milieux_25km": "{\"mer Halakhel\": 100}", "col_proche": "{\"geo_id\": \"GEO_COL_043\", \"nom\": \"Halek-t'ama\", \"altitude_m\": 1900, \"distance_km\": 734, \"ouverture\": [4, 11]}", "expositions_calculees": "brouillards d'évaporation (Hiver de Vapeur); tempêtes et houle de rivage", "id": "AUX_KRALEKH-NER", "nom": "Kralekh-ner", "type": "AUX", "facade": null, "confiance": "moyenne", "note": "[NON DOCUMENTÉ] « approches nord du détroit Khreth-na-Serek » : sortie N de la passe, dans le golfe de Serek.", "ecarts_corpus": 0, "statut": "[PROPOSITION]"}}, {"type": "Feature", "geometry": {"type": "Point", "coordinates": [-7.72, 27.19]}, "properties": {"sur_l_eau": null, "altitude_m": 10, "denivele_10km_m": 135, "pente_pct": 1.3, "d_halakhel_km": 4, "d_ocean_km": 325, "d_lac_km": 2186, "d_cours_eau_km": 2, "fleuve_nomme": "Ehukhtal", "debit_proche_m3s": 2, "pluie_mm": 292, "T_annuelle_C": 20.6, "Tw_hiver_C": 11.3, "Tn_nuit_hiver_C": 1.8, "facies_arin": "Hiver de Vapeur", "milieu_site": "plaine_alluviale", "milieux_25km": "{\"steppe_piemont\": 44, \"mer Halakhel\": 35, \"plaine_alluviale\": 21}", "col_proche": "{\"geo_id\": \"GEO_COL_038\", \"nom\": \"Hlenik-k'eso\", \"altitude_m\": 2000, \"distance_km\": 513, \"ouverture\": [4, 11]}", "expositions_calculees": "brouillards d'évaporation (Hiver de Vapeur); tempêtes et houle de rivage", "id": "LUR_AKHIDALET_NO", "nom": "Akhidalet", "type": "LUR", "facade": "HKL_NO", "confiance": "haute", "note": "Estuaire de l'Ehukhtal (GEO_EST_AKHIDALET), au fond du goulet Hlom-khetal.", "ecarts_corpus": 0, "statut": "[PROPOSITION]"}}, {"type": "Feature", "geometry": {"type": "Point", "coordinates": [-7.497, 28.206]}, "properties": {"sur_l_eau": null, "altitude_m": 32, "denivele_10km_m": 139, "pente_pct": 2.5, "d_halakhel_km": 2, "d_ocean_km": 274, "d_lac_km": 2246, "d_cours_eau_km": 109, "fleuve_nomme": null, "debit_proche_m3s": 7, "pluie_mm": 283, "T_annuelle_C": 20.0, "Tw_hiver_C": 10.5, "Tn_nuit_hiver_C": 0.9, "facies_arin": "Hiver de Vapeur", "milieu_site": "desert_pierreux", "milieux_25km": "{\"steppe_piemont\": 58, \"mer Halakhel\": 37, \"desert_pierreux\": 5}", "col_proche": "{\"geo_id\": \"GEO_COL_038\", \"nom\": \"Hlenik-k'eso\", \"altitude_m\": 2000, \"distance_km\": 628, \"ouverture\": [4, 11]}", "expositions_calculees": "brouillards d'évaporation (Hiver de Vapeur); tempêtes et houle de rivage", "id": "LUR_KRALEKH-AKTRIK_NO", "nom": "Kralekh-Aktrik", "type": "LUR", "facade": "HKL_NO", "confiance": "haute", "note": "Rive nord du goulet, point de l'Halakhel le plus proche de l'Atlantique (départ du portage RT_027, siège du Kisralom).", "ecarts_corpus": 0, "statut": "[PROPOSITION]"}}, {"type": "Feature", "geometry": {"type": "Point", "coordinates": [-5.983, 28.262]}, "properties": {"sur_l_eau": null, "altitude_m": -2, "denivele_10km_m": 116, "pente_pct": 0.2, "d_halakhel_km": 3, "d_ocean_km": 399, "d_lac_km": 2166, "d_cours_eau_km": 184, "fleuve_nomme": null, "debit_proche_m3s": 0, "pluie_mm": 201, "T_annuelle_C": 20.2, "Tw_hiver_C": 10.6, "Tn_nuit_hiver_C": -0.0, "facies_arin": "Hiver de Vapeur", "milieu_site": "desert_pierreux", "milieux_25km": "{\"desert_pierreux\": 89, \"mer Halakhel\": 10}", "col_proche": "{\"geo_id\": \"GEO_COL_031\", \"nom\": \"Tkrilan-ɨkh\", \"altitude_m\": 2800, \"distance_km\": 601, \"ouverture\": [6, 10]}", "expositions_calculees": "brouillards d'évaporation (Hiver de Vapeur); tempêtes et houle de rivage", "id": "LUR_AKTRIK-KHEM_NO", "nom": "Aktrik-khem", "type": "LUR", "facade": "HKL_NO", "confiance": "haute", "note": "Rive NO du bassin occidental, à l'est de Kralekh-Aktrik (port envasé).", "ecarts_corpus": 0, "statut": "[PROPOSITION]"}}, {"type": "Feature", "geometry": {"type": "Point", "coordinates": [-6.891, 27.488]}, "properties": {"sur_l_eau": null, "altitude_m": 64, "denivele_10km_m": 211, "pente_pct": 4.2, "d_halakhel_km": 2, "d_ocean_km": 371, "d_lac_km": 2161, "d_cours_eau_km": 62, "fleuve_nomme": null, "debit_proche_m3s": 1, "pluie_mm": 277, "T_annuelle_C": 20.1, "Tw_hiver_C": 10.8, "Tn_nuit_hiver_C": 1.1, "facies_arin": "Hiver de Vapeur", "milieu_site": "littoral_rocheux", "milieux_25km": "{\"mer Halakhel\": 56, \"steppe_piemont\": 38}", "col_proche": "{\"geo_id\": \"GEO_COL_031\", \"nom\": \"Tkrilan-ɨkh\", \"altitude_m\": 2800, \"distance_km\": 541, \"ouverture\": [6, 10]}", "expositions_calculees": "brouillards d'évaporation (Hiver de Vapeur); tempêtes et houle de rivage", "id": "LUR_HLOM-KHETAL_NO", "nom": "Hlom-khetal", "type": "LUR", "facade": "HKL_O", "confiance": "haute", "note": "Rive sud du goulet Hlom-khetal (entrée O de la mer), barres sableuses saisonnières.", "ecarts_corpus": 0, "statut": "[PROPOSITION]"}}, {"type": "Feature", "geometry": {"type": "Point", "coordinates": [0.344, 25.707]}, "properties": {"sur_l_eau": null, "altitude_m": 59, "denivele_10km_m": 203, "pente_pct": 3.8, "d_halakhel_km": 2, "d_ocean_km": 1104, "d_lac_km": 1669, "d_cours_eau_km": 62, "fleuve_nomme": null, "debit_proche_m3s": 0, "pluie_mm": 179, "T_annuelle_C": 21.0, "Tw_hiver_C": 12.0, "Tn_nuit_hiver_C": 1.1, "facies_arin": "Hiver de Vapeur", "milieu_site": "littoral_rocheux", "milieux_25km": "{\"desert_pierreux\": 56, \"mer Halakhel\": 41}", "col_proche": "{\"geo_id\": \"GEO_COL_043\", \"nom\": \"Halek-t'ama\", \"altitude_m\": 1900, \"distance_km\": 228, \"ouverture\": [4, 11]}", "expositions_calculees": "brouillards d'évaporation (Hiver de Vapeur); tempêtes et houle de rivage", "id": "LUR_IMEKH-STOM_NO", "nom": "Imekh-stom", "type": "LUR", "facade": "HKL_SO", "confiance": "haute", "note": "Goulet estuarien de l'Imikhrel (GEO_DET_IMEKHSTOM), entrée SO de la mer.", "ecarts_corpus": 2, "statut": "[PROPOSITION]"}}, {"type": "Feature", "geometry": {"type": "Point", "coordinates": [0.599, 24.596]}, "properties": {"sur_l_eau": null, "altitude_m": 443, "denivele_10km_m": 203, "pente_pct": 1.8, "d_halakhel_km": 77, "d_ocean_km": 1194, "d_lac_km": 1559, "d_cours_eau_km": 60, "fleuve_nomme": null, "debit_proche_m3s": 1, "pluie_mm": 193, "T_annuelle_C": 19.2, "Tw_hiver_C": 10.4, "Tn_nuit_hiver_C": -0.3, "facies_arin": "Hiver Jaune", "milieu_site": "steppe_piemont", "milieux_25km": "{\"steppe_piemont\": 98}", "col_proche": "{\"geo_id\": \"GEO_COL_043\", \"nom\": \"Halek-t'ama\", \"altitude_m\": 1900, \"distance_km\": 134, \"ouverture\": [4, 11]}", "expositions_calculees": "", "id": "ZRS_AKHILETH_NO", "nom": "Akhileth", "type": "ZRS", "facade": "HKL_SO", "confiance": "haute", "note": "Arrière-pays boisé du goulet d'Imekh-stom : premier étage boisé, piémont N de !Okheti.", "ecarts_corpus": 3, "statut": "[PROPOSITION]"}}, {"type": "Feature", "geometry": {"type": "Point", "coordinates": [2.623, 25.85]}, "properties": {"sur_l_eau": null, "altitude_m": 55, "denivele_10km_m": 209, "pente_pct": 4.0, "d_halakhel_km": 2, "d_ocean_km": 1160, "d_lac_km": 1616, "d_cours_eau_km": 120, "fleuve_nomme": null, "debit_proche_m3s": 0, "pluie_mm": 191, "T_annuelle_C": 20.9, "Tw_hiver_C": 11.9, "Tn_nuit_hiver_C": 1.1, "facies_arin": "Hiver de Vapeur", "milieu_site": "littoral_rocheux", "milieux_25km": "{\"mer Halakhel\": 62, \"desert_pierreux\": 30, \"littoral_rocheux\": 7}", "col_proche": "{\"geo_id\": \"GEO_COL_034\", \"nom\": \"Ktamar-khɨ\", \"altitude_m\": 3000, \"distance_km\": 302, \"ouverture\": [7, 9]}", "expositions_calculees": "brouillards d'évaporation (Hiver de Vapeur); tempêtes et houle de rivage", "id": "LUR_CHERBEKH-KHEM_NO", "nom": "Cherbekh-khem", "type": "LUR", "facade": "HKL_S", "confiance": "haute", "note": "Partie ouest de HKL_S (rias basaltiques), à l'est du goulet d'Imekh-stom ; débouché vers Ts'idar-‖Sek (RT_044).", "ecarts_corpus": 1, "statut": "[PROPOSITION]"}}, {"type": "Feature", "geometry": {"type": "Point", "coordinates": [14.064, 25.203]}, "properties": {"sur_l_eau": null, "altitude_m": 62, "denivele_10km_m": 245, "pente_pct": 4.1, "d_halakhel_km": 2, "d_ocean_km": 719, "d_lac_km": 832, "d_cours_eau_km": 141, "fleuve_nomme": null, "debit_proche_m3s": 1, "pluie_mm": 569, "T_annuelle_C": 21.2, "Tw_hiver_C": 12.3, "Tn_nuit_hiver_C": 4.3, "facies_arin": "Hiver de Vapeur", "milieu_site": "littoral_rocheux", "milieux_25km": "{\"mer Halakhel\": 58, \"steppe_piemont\": 27, \"herbage_arbore\": 14}", "col_proche": "{\"geo_id\": \"GEO_COL_003\", \"nom\": \"Ṣabūl-tɨkh\", \"altitude_m\": 2900, \"distance_km\": 544, \"ouverture\": [6, 10]}", "expositions_calculees": "brouillards d'évaporation (Hiver de Vapeur); tempêtes et houle de rivage", "id": "LUR_TAWALMAZ_NE", "nom": "Tawālmaz", "type": "LUR", "facade": "HKL_S", "confiance": "haute", "note": "Ria-estuaire de la Madīlan (GEO_EST_TAWALMAZ), golfe du Fezzan, rive S.", "ecarts_corpus": 0, "statut": "[PROPOSITION]"}}, {"type": "Feature", "geometry": {"type": "Point", "coordinates": [22.574, 23.709]}, "properties": {"sur_l_eau": null, "altitude_m": 32, "denivele_10km_m": 164, "pente_pct": 3.7, "d_halakhel_km": 2, "d_ocean_km": 817, "d_lac_km": 167, "d_cours_eau_km": 187, "fleuve_nomme": null, "debit_proche_m3s": 0, "pluie_mm": 151, "T_annuelle_C": 22.0, "Tw_hiver_C": 13.5, "Tn_nuit_hiver_C": 2.2, "facies_arin": "Hiver de Vapeur", "milieu_site": "littoral_rocheux", "milieux_25km": "{\"desert_pierreux\": 58, \"mer Halakhel\": 34, \"littoral_rocheux\": 5}", "col_proche": "{\"geo_id\": \"GEO_COL_005\", \"nom\": \"Qaṣūl-tɨra\", \"altitude_m\": 2700, \"distance_km\": 620, \"ouverture\": [6, 10]}", "expositions_calculees": "brouillards d'évaporation (Hiver de Vapeur); tempêtes et houle de rivage", "id": "LUR_QABD-AR-GANUB_NE", "nom": "Qabḍ-ār-Ǧanūb", "type": "LUR", "facade": "HKL_S", "confiance": "haute", "note": "Cap du golfe de Koufra, extrémité S de la mer : terminus des routes du Sud profond (Akhtir à ~150 km, cols de k'ara au-delà).", "ecarts_corpus": 0, "statut": "[PROPOSITION]"}}, {"type": "Feature", "geometry": {"type": "Point", "coordinates": [38.351, 10.555]}, "properties": {"sur_l_eau": null, "altitude_m": 1384, "denivele_10km_m": 1097, "pente_pct": 2.1, "d_halakhel_km": 2056, "d_ocean_km": 471, "d_lac_km": 1236, "d_cours_eau_km": 12, "fleuve_nomme": "Tira-ñara / Tanāḥil", "debit_proche_m3s": 43, "pluie_mm": 565, "T_annuelle_C": 19.2, "Tw_hiver_C": 13.6, "Tn_nuit_hiver_C": 5.6, "facies_arin": "hors |'Arin", "milieu_site": "herbage_arbore", "milieux_25km": "{\"herbage_arbore\": 59, \"steppe_piemont\": 24, \"plaine_alluviale\": 13}", "col_proche": "{\"geo_id\": \"GEO_COL_048\", \"nom\": \"Nrelat-q'urm\", \"altitude_m\": 2200, \"distance_km\": 156, \"ouverture\": [4, 11]}", "expositions_calculees": "éboulements, glissements (versants raides)", "id": "LUR_QURASH-TANIQA_NE", "nom": "Qūrāš-Tanīqa", "type": "LUR", "facade": "HKL_NE", "confiance": "haute", "note": "Haute Tanāḥil = gorge amont du Tira-ñara/Tanāḥil (Abay réel : grès et marno-calcaires, fond semi-aride). Citadelle dans le canyon, à ~300 km des cols TNQ (044, 046, 047).", "ecarts_corpus": 0, "statut": "[PROPOSITION]"}}, {"type": "Feature", "geometry": {"type": "Point", "coordinates": [38.446, 10.947]}, "properties": {"sur_l_eau": null, "altitude_m": 1413, "denivele_10km_m": 828, "pente_pct": 3.8, "d_halakhel_km": 2024, "d_ocean_km": 453, "d_lac_km": 1257, "d_cours_eau_km": 3, "fleuve_nomme": "Tira-ñara / Tanāḥil", "debit_proche_m3s": 25, "pluie_mm": 434, "T_annuelle_C": 19.0, "Tw_hiver_C": 13.4, "Tn_nuit_hiver_C": 5.4, "facies_arin": "hors |'Arin", "milieu_site": "steppe_piemont", "milieux_25km": "{\"steppe_piemont\": 73, \"herbage_arbore\": 27}", "col_proche": "{\"geo_id\": \"GEO_COL_048\", \"nom\": \"Nrelat-q'urm\", \"altitude_m\": 2200, \"distance_km\": 124, \"ouverture\": [4, 11]}", "expositions_calculees": "", "id": "LUR_QURASH-TANIHIL_NE", "nom": "Qūrāš-Taniḥīl-Ramšūr", "type": "LUR", "facade": "HKL_NE", "confiance": "haute", "note": "Caravansérail-forteresse du corridor de la haute Tanāḥil, en amont du pôle Tanāḥil.", "ecarts_corpus": 0, "statut": "[PROPOSITION]"}}, {"type": "Feature", "geometry": {"type": "Point", "coordinates": [38.096, 10.101]}, "properties": {"sur_l_eau": null, "altitude_m": 1146, "denivele_10km_m": 773, "pente_pct": 4.9, "d_halakhel_km": 2086, "d_ocean_km": 511, "d_lac_km": 1198, "d_cours_eau_km": 6, "fleuve_nomme": "Tira-ñara / Tanāḥil", "debit_proche_m3s": 185, "pluie_mm": 817, "T_annuelle_C": 20.6, "Tw_hiver_C": 15.2, "Tn_nuit_hiver_C": 7.2, "facies_arin": "hors |'Arin", "milieu_site": "herbage_arbore", "milieux_25km": "{\"foret_montagne\": 58, \"herbage_arbore\": 33, \"foret_berge\": 9}", "col_proche": "{\"geo_id\": \"GEO_COL_048\", \"nom\": \"Nrelat-q'urm\", \"altitude_m\": 2200, \"distance_km\": 197, \"ouverture\": [4, 11]}", "expositions_calculees": "crues (lit majeur)", "id": "ZRS_SHALIM_NE", "nom": "Šālim", "type": "ZRS", "facade": "HKL_NE", "confiance": "haute", "note": "Ruines de Šālim dans la haute Tanāḥil (fond de gorge).", "ecarts_corpus": 0, "statut": "[PROPOSITION]"}}, {"type": "Feature", "geometry": {"type": "Point", "coordinates": [29.395, 29.365]}, "properties": {"sur_l_eau": null, "altitude_m": 231, "denivele_10km_m": 53, "pente_pct": 0.5, "d_halakhel_km": 83, "d_ocean_km": 162, "d_lac_km": 952, "d_cours_eau_km": 157, "fleuve_nomme": null, "debit_proche_m3s": 0, "pluie_mm": 236, "T_annuelle_C": 18.3, "Tw_hiver_C": 8.5, "Tn_nuit_hiver_C": -1.7, "facies_arin": "Hiver Jaune", "milieu_site": "desert_pierreux", "milieux_25km": "{\"desert_pierreux\": 61, \"steppe_piemont\": 25, \"depression_saline\": 14}", "col_proche": "{\"geo_id\": \"GEO_COL_005\", \"nom\": \"Qaṣūl-tɨra\", \"altitude_m\": 2700, \"distance_km\": 1515, \"ouverture\": [6, 10]}", "expositions_calculees": "", "id": "LUR_SARIQ_NE", "nom": "Ṣarīq", "type": "LUR", "facade": "HKL_NE", "confiance": "haute", "note": "En bordure du marais de Ṣaraq (GEO_MAR_SARAQ), à la sortie des pistes de crête que surveillent les Ṣarqami.", "ecarts_corpus": 0, "statut": "[PROPOSITION]"}}, {"type": "Feature", "geometry": {"type": "Point", "coordinates": [28.168, 29.31]}, "properties": {"sur_l_eau": null, "altitude_m": 43, "denivele_10km_m": 185, "pente_pct": 3.9, "d_halakhel_km": 2, "d_ocean_km": 187, "d_lac_km": 886, "d_cours_eau_km": 147, "fleuve_nomme": null, "debit_proche_m3s": 0, "pluie_mm": 179, "T_annuelle_C": 19.5, "Tw_hiver_C": 9.7, "Tn_nuit_hiver_C": -1.3, "facies_arin": "Hiver de Vapeur", "milieu_site": "littoral_rocheux", "milieux_25km": "{\"desert_pierreux\": 43, \"mer Halakhel\": 32, \"depression_saline\": 23}", "col_proche": "{\"geo_id\": \"GEO_COL_005\", \"nom\": \"Qaṣūl-tɨra\", \"altitude_m\": 2700, \"distance_km\": 1437, \"ouverture\": [6, 10]}", "expositions_calculees": "brouillards d'évaporation (Hiver de Vapeur); tempêtes et houle de rivage", "id": "ZRS_HAMAD-RAS_NE", "nom": "Ḥamaḍ-Rās", "type": "ZRS", "facade": "HKL_NE", "confiance": "haute", "note": "Port secondaire de cap sur la côte NE du bassin oriental, entre Qūrāš-Ṣafīḥ et la rive N (cabotage NE→E).", "ecarts_corpus": 0, "statut": "[PROPOSITION]"}}, {"type": "Feature", "geometry": {"type": "Point", "coordinates": [28.407, 28.445]}, "properties": {"sur_l_eau": null, "altitude_m": 2, "denivele_10km_m": 131, "pente_pct": 1.4, "d_halakhel_km": 2, "d_ocean_km": 272, "d_lac_km": 822, "d_cours_eau_km": 49, "fleuve_nomme": null, "debit_proche_m3s": 0, "pluie_mm": 148, "T_annuelle_C": 20.1, "Tw_hiver_C": 10.5, "Tn_nuit_hiver_C": -0.9, "facies_arin": "Hiver de Vapeur", "milieu_site": "depression_saline", "milieux_25km": "{\"mer Halakhel\": 48, \"depression_saline\": 29, \"desert_pierreux\": 18}", "col_proche": "{\"geo_id\": \"GEO_COL_005\", \"nom\": \"Qaṣūl-tɨra\", \"altitude_m\": 2700, \"distance_km\": 1375, \"ouverture\": [6, 10]}", "expositions_calculees": "brouillards d'évaporation (Hiver de Vapeur); tempêtes et houle de rivage; aridité (< 150 mm)", "id": "AUX_QURASH-SAFIH", "nom": "Qūrāš-Ṣafīḥ", "type": "AUX", "facade": null, "confiance": "moyenne", "note": "[NON DOCUMENTÉ] cité šamqir au NE d'Abnaqil, sur le chenal NE (Abnīṣar) du delta d'Abnīqa.", "ecarts_corpus": 0, "statut": "[PROPOSITION]"}}, {"type": "Feature", "geometry": {"type": "Point", "coordinates": [28.901, 27.615]}, "properties": {"sur_l_eau": null, "altitude_m": 27, "denivele_10km_m": 62, "pente_pct": 0.1, "d_halakhel_km": 23, "d_ocean_km": 360, "d_lac_km": 781, "d_cours_eau_km": 2, "fleuve_nomme": "Abnīqa", "debit_proche_m3s": 4406, "pluie_mm": 151, "T_annuelle_C": 20.3, "Tw_hiver_C": 10.9, "Tn_nuit_hiver_C": -0.4, "facies_arin": "Hiver de Vapeur", "milieu_site": "plaine_alluviale", "milieux_25km": "{\"plaine_alluviale\": 73, \"desert_pierreux\": 15, \"depression_saline\": 10}", "col_proche": "{\"geo_id\": \"GEO_COL_002\", \"nom\": \"Ṭanīkhūr\", \"altitude_m\": 3200, \"distance_km\": 1337, \"ouverture\": [7, 8]}", "expositions_calculees": "crues (lit majeur); brouillards d'évaporation (Hiver de Vapeur)", "id": "LUR_ABNAQIL_NE", "nom": "Abnaqil", "type": "LUR", "facade": "HKL_E", "confiance": "haute", "note": "Carrefour deltaïque : à l'apex du cône du bras d'Abnīqa, d'où divergent les chenaux NE (Abnīṣar) et SE (Tanīlḥa).", "ecarts_corpus": 0, "statut": "[PROPOSITION]"}}, {"type": "Feature", "geometry": {"type": "Point", "coordinates": [28.359, 27.657]}, "properties": {"sur_l_eau": null, "altitude_m": 12, "denivele_10km_m": 72, "pente_pct": 0.6, "d_halakhel_km": 4, "d_ocean_km": 361, "d_lac_km": 752, "d_cours_eau_km": 2, "fleuve_nomme": "Abnīqa", "debit_proche_m3s": 0, "pluie_mm": 139, "T_annuelle_C": 20.4, "Tw_hiver_C": 11.0, "Tn_nuit_hiver_C": -0.5, "facies_arin": "Hiver de Vapeur", "milieu_site": "plaine_alluviale", "milieux_25km": "{\"mer Halakhel\": 47, \"plaine_alluviale\": 30, \"depression_saline\": 20}", "col_proche": "{\"geo_id\": \"GEO_COL_005\", \"nom\": \"Qaṣūl-tɨra\", \"altitude_m\": 2700, \"distance_km\": 1305, \"ouverture\": [6, 10]}", "expositions_calculees": "brouillards d'évaporation (Hiver de Vapeur); tempêtes et houle de rivage; aridité (< 150 mm)", "id": "LUR_ABNIQA_NE", "nom": "Abnīqa", "type": "LUR", "facade": "HKL_E", "confiance": "haute", "note": "Débouché du bras d'Abnīqa (GEO_DET_ABNIQA), ouest du delta.", "ecarts_corpus": 1, "statut": "[PROPOSITION]"}}, {"type": "Feature", "geometry": {"type": "Point", "coordinates": [28.423, 27.375]}, "properties": {"sur_l_eau": null, "altitude_m": -5, "denivele_10km_m": 110, "pente_pct": 0.8, "d_halakhel_km": 2, "d_ocean_km": 392, "d_lac_km": 733, "d_cours_eau_km": 16, "fleuve_nomme": "Abnīqa", "debit_proche_m3s": 0, "pluie_mm": 141, "T_annuelle_C": 20.6, "Tw_hiver_C": 11.2, "Tn_nuit_hiver_C": -0.2, "facies_arin": "Hiver de Vapeur", "milieu_site": "depression_saline", "milieux_25km": "{\"mer Halakhel\": 55, \"plaine_alluviale\": 23, \"depression_saline\": 22}", "col_proche": "{\"geo_id\": \"GEO_COL_005\", \"nom\": \"Qaṣūl-tɨra\", \"altitude_m\": 2700, \"distance_km\": 1286, \"ouverture\": [6, 10]}", "expositions_calculees": "brouillards d'évaporation (Hiver de Vapeur); tempêtes et houle de rivage; aridité (< 150 mm)", "id": "LUR_TANAQIL_NE", "nom": "Tanāqil", "type": "LUR", "facade": "HKL_E", "confiance": "haute", "note": "Poste de transbordement sur le chenal SE (Tanīlḥa), au sud d'Abnīqa.", "ecarts_corpus": 0, "statut": "[PROPOSITION]"}}, {"type": "Feature", "geometry": {"type": "Point", "coordinates": [28.343, 26.75]}, "properties": {"sur_l_eau": null, "altitude_m": 0, "denivele_10km_m": 118, "pente_pct": 1.0, "d_halakhel_km": 2, "d_ocean_km": 464, "d_lac_km": 678, "d_cours_eau_km": 70, "fleuve_nomme": null, "debit_proche_m3s": 0, "pluie_mm": 139, "T_annuelle_C": 20.9, "Tw_hiver_C": 11.6, "Tn_nuit_hiver_C": 0.2, "facies_arin": "Hiver de Vapeur", "milieu_site": "depression_saline", "milieux_25km": "{\"mer Halakhel\": 61, \"depression_saline\": 30}", "col_proche": "{\"geo_id\": \"GEO_COL_002\", \"nom\": \"Ṭanīkhūr\", \"altitude_m\": 3200, \"distance_km\": 1227, \"ouverture\": [7, 8]}", "expositions_calculees": "brouillards d'évaporation (Hiver de Vapeur); tempêtes et houle de rivage; aridité (< 150 mm)", "id": "LUR_QABSUR-QIBS_E", "nom": "Qabṣūr-Qibṣ", "type": "LUR", "facade": "HKL_E", "confiance": "haute", "note": "Salines de la côte orientale (remontées salines de l'interfluve), au S du delta ; caravane lourde vers Abnaqil (RT_028).", "ecarts_corpus": 0, "statut": "[PROPOSITION]"}}, {"type": "Feature", "geometry": {"type": "Point", "coordinates": [26.893, 25.333]}, "properties": {"sur_l_eau": null, "altitude_m": 6, "denivele_10km_m": 141, "pente_pct": 1.5, "d_halakhel_km": 2, "d_ocean_km": 660, "d_lac_km": 471, "d_cours_eau_km": 22, "fleuve_nomme": "|Na-khuwel / Ḥawqal", "debit_proche_m3s": 1, "pluie_mm": 165, "T_annuelle_C": 21.5, "Tw_hiver_C": 12.6, "Tn_nuit_hiver_C": 1.4, "facies_arin": "Hiver de Vapeur", "milieu_site": "depression_saline", "milieux_25km": "{\"mer Halakhel\": 53, \"depression_saline\": 25, \"plaine_alluviale\": 11, \"desert_pierreux\": 8}", "col_proche": "{\"geo_id\": \"GEO_COL_002\", \"nom\": \"Ṭanīkhūr\", \"altitude_m\": 3200, \"distance_km\": 1014, \"ouverture\": [7, 8]}", "expositions_calculees": "brouillards d'évaporation (Hiver de Vapeur); tempêtes et houle de rivage", "id": "LUR_HAWQIL_NE", "nom": "Ḥawqil", "type": "LUR", "facade": "HKL_E", "confiance": "haute", "note": "Embouchure du Ḥawqal (GEO_DET_HAWQIL).", "ecarts_corpus": 0, "statut": "[PROPOSITION]"}}, {"type": "Feature", "geometry": {"type": "Point", "coordinates": [32.55, 15.614]}, "properties": {"sur_l_eau": null, "altitude_m": 378, "denivele_10km_m": 29, "pente_pct": 0.0, "d_halakhel_km": 1224, "d_ocean_km": 632, "d_lac_km": 1019, "d_cours_eau_km": 0, "fleuve_nomme": "Tira-ñara / Tanāḥil", "debit_proche_m3s": 4064, "pluie_mm": 84, "T_annuelle_C": 23.6, "Tw_hiver_C": 16.9, "Tn_nuit_hiver_C": 4.9, "facies_arin": "hors |'Arin", "milieu_site": "plaine_alluviale", "milieux_25km": "{\"desert_pierreux\": 51, \"plaine_alluviale\": 46}", "col_proche": "{\"geo_id\": \"GEO_COL_013\", \"nom\": \"P'etsul-!ama\", \"altitude_m\": 2600, \"distance_km\": 579, \"ouverture\": [5, 10]}", "expositions_calculees": "crues (lit majeur); aridité (< 150 mm)", "id": "LUR_TANAHIL_NE", "nom": "Tanāḥil", "type": "LUR", "facade": "HKL_E", "confiance": "haute", "note": "Confluence Tanāḥil-Abnuḥīl (Khartoum réel) : tête de la vallée de l'Abnuḥīl, débouché aval de la haute Tanāḥil. Résout ALN-083 : la vallée des villes est celle du fleuve.", "ecarts_corpus": 1, "statut": "[PROPOSITION]"}}, {"type": "Feature", "geometry": {"type": "Point", "coordinates": [31.291, 31.481]}, "properties": {"sur_l_eau": null, "altitude_m": 0, "denivele_10km_m": 12, "pente_pct": 0.1, "d_halakhel_km": 362, "d_ocean_km": 4, "d_lac_km": 1225, "d_cours_eau_km": 36, "fleuve_nomme": null, "debit_proche_m3s": 1, "pluie_mm": 301, "T_annuelle_C": 18.7, "Tw_hiver_C": 8.4, "Tn_nuit_hiver_C": -0.9, "facies_arin": "hiver pluvieux tempéré", "milieu_site": "plaine_alluviale", "milieux_25km": "{\"plaine_alluviale\": 54, \"océan\": 45}", "col_proche": "{\"geo_id\": \"GEO_COL_005\", \"nom\": \"Qaṣūl-tɨra\", \"altitude_m\": 2700, \"distance_km\": 1812, \"ouverture\": [6, 10]}", "expositions_calculees": "tempêtes et houle de rivage", "id": "LUR_SHAFAQ-MIRQ_NE", "nom": "Šafāq-Mirq", "type": "LUR", "facade": "MED_NE", "confiance": "haute", "note": "Port des embouchures du delta Šafāqil (GEO_DET_SAFAQIL_PASSE).", "ecarts_corpus": 1, "statut": "[PROPOSITION]"}}, {"type": "Feature", "geometry": {"type": "Point", "coordinates": [29.809, 31.073]}, "properties": {"sur_l_eau": null, "altitude_m": 0, "denivele_10km_m": 49, "pente_pct": 0.1, "d_halakhel_km": 239, "d_ocean_km": 4, "d_lac_km": 1116, "d_cours_eau_km": 66, "fleuve_nomme": null, "debit_proche_m3s": 2, "pluie_mm": 372, "T_annuelle_C": 18.9, "Tw_hiver_C": 8.7, "Tn_nuit_hiver_C": 0.4, "facies_arin": "hiver pluvieux tempéré", "milieu_site": "plaine_alluviale", "milieux_25km": "{\"océan\": 42, \"plaine_alluviale\": 32, \"fourre_cotier_sec\": 26}", "col_proche": "{\"geo_id\": \"GEO_COL_005\", \"nom\": \"Qaṣūl-tɨra\", \"altitude_m\": 2700, \"distance_km\": 1688, \"ouverture\": [6, 10]}", "expositions_calculees": "tempêtes et houle de rivage", "id": "LUR_TANQUISH_NE", "nom": "Ṭanquish", "type": "LUR", "facade": "MED_NE", "confiance": "haute", "note": "Rive méditerranéenne à l'ouest du delta, bordée de lagunes salées (Maqbaṣ) ; maillon aval de la chaîne Abnīqa-Tanāḥil-Ṭanquish.", "ecarts_corpus": 1, "statut": "[PROPOSITION]"}}, {"type": "Feature", "geometry": {"type": "Point", "coordinates": [31.004, 32.293]}, "properties": {"sur_l_eau": "océan", "altitude_m": null, "denivele_10km_m": 540, "pente_pct": 3.9, "d_halakhel_km": 410, "d_ocean_km": 0, "d_lac_km": 1275, "d_cours_eau_km": 110, "fleuve_nomme": null, "debit_proche_m3s": 0, "pluie_mm": 267, "T_annuelle_C": 18.4, "Tw_hiver_C": 7.9, "Tn_nuit_hiver_C": -1.9, "facies_arin": "hors |'Arin", "milieu_site": "océan", "milieux_25km": "{\"océan\": 100}", "col_proche": "{\"geo_id\": \"GEO_COL_005\", \"nom\": \"Qaṣūl-tɨra\", \"altitude_m\": 2700, \"distance_km\": 1864, \"ouverture\": [6, 10]}", "expositions_calculees": "tempêtes et houle de rivage", "id": "AUX_MEDITERRANEE_NE", "nom": "Méditerranée NE (façade)", "type": "AUX", "facade": null, "confiance": "faible", "note": "Point de mer au large du delta (destination de façade de RT_008).", "ecarts_corpus": 0, "statut": "[PROPOSITION]"}}, {"type": "Feature", "geometry": {"type": "Point", "coordinates": [42.892, 11.744]}, "properties": {"sur_l_eau": null, "altitude_m": -15, "denivele_10km_m": 994, "pente_pct": 4.1, "d_halakhel_km": 2266, "d_ocean_km": 3, "d_lac_km": 1743, "d_cours_eau_km": 36, "fleuve_nomme": null, "debit_proche_m3s": 0, "pluie_mm": 298, "T_annuelle_C": 27.5, "Tw_hiver_C": 21.7, "Tn_nuit_hiver_C": 12.3, "facies_arin": "hors |'Arin", "milieu_site": "littoral_rocheux", "milieux_25km": "{\"steppe_piemont\": 46, \"océan\": 37, \"desert_pierreux\": 8, \"littoral_rocheux\": 8}", "col_proche": "{\"geo_id\": \"GEO_COL_044\", \"nom\": \"ʿUbayl-t'iq\", \"altitude_m\": 2000, \"distance_km\": 488, \"ouverture\": [4, 11]}", "expositions_calculees": "tempêtes et houle de rivage; éboulements, glissements (versants raides)", "id": "LUR_TNAYA-HAEM_SE", "nom": "T'naya-Ḥaem", "type": "LUR", "facade": "ROU_SE", "confiance": "haute", "note": "Golfe de Tadjoura réel : jonction mer Rouge / océan de l'Est (façades ROU_SE et IND_SE), côte basaltique adossée à un escarpement (treuil de RT_052).", "ecarts_corpus": 0, "statut": "[PROPOSITION]"}}, {"type": "Feature", "geometry": {"type": "Point", "coordinates": [40.135, 15.014]}, "properties": {"sur_l_eau": null, "altitude_m": 62, "denivele_10km_m": 199, "pente_pct": 3.5, "d_halakhel_km": 1773, "d_ocean_km": 2, "d_lac_km": 1589, "d_cours_eau_km": 222, "fleuve_nomme": null, "debit_proche_m3s": 0, "pluie_mm": 94, "T_annuelle_C": 25.8, "Tw_hiver_C": 19.2, "Tn_nuit_hiver_C": 7.2, "facies_arin": "hors |'Arin", "milieu_site": "littoral_rocheux", "milieux_25km": "{\"cote_desertique\": 41, \"recif_corallien\": 26, \"desert_pierreux\": 19, \"hors Beliet\": 9}", "col_proche": "{\"geo_id\": \"GEO_COL_044\", \"nom\": \"ʿUbayl-t'iq\", \"altitude_m\": 2000, \"distance_km\": 106, \"ouverture\": [4, 11]}", "expositions_calculees": "tempêtes et houle de rivage; aridité (< 150 mm)", "id": "LUR_KURE-KESUN_SE", "nom": "K'uré-K’ésun", "type": "LUR", "facade": "ROU_SE", "confiance": "haute", "note": "Côte basaltique de la mer Rouge au pied de l'escarpement (K'umal-Naqra au-dessus, RT_067).", "ecarts_corpus": 0, "statut": "[PROPOSITION]"}}, {"type": "Feature", "geometry": {"type": "Point", "coordinates": [39.45, 15.598]}, "properties": {"sur_l_eau": null, "altitude_m": 368, "denivele_10km_m": 666, "pente_pct": 10.9, "d_halakhel_km": 1670, "d_ocean_km": 2, "d_lac_km": 1558, "d_cours_eau_km": 229, "fleuve_nomme": null, "debit_proche_m3s": 0, "pluie_mm": 106, "T_annuelle_C": 23.7, "Tw_hiver_C": 17.0, "Tn_nuit_hiver_C": 5.0, "facies_arin": "hors |'Arin", "milieu_site": "littoral_rocheux", "milieux_25km": "{\"steppe_piemont\": 31, \"recif_corallien\": 30, \"océan\": 15, \"desert_pierreux\": 14}", "col_proche": "{\"geo_id\": \"GEO_COL_045\", \"nom\": \"Ḥazīr-k'ama\", \"altitude_m\": 2100, \"distance_km\": 82, \"ouverture\": [4, 11]}", "expositions_calculees": "tempêtes et houle de rivage; aridité (< 150 mm)", "id": "LUR_KURE-TAWA_SE", "nom": "K'uré-tawa", "type": "LUR", "facade": "ROU_SE", "confiance": "haute", "note": "Port corallien (Massawa réel), au pied du plateau des Foyers-Purs.", "ecarts_corpus": 0, "statut": "[PROPOSITION]"}}, {"type": "Feature", "geometry": {"type": "Point", "coordinates": [5.045, 9.504]}, "properties": {"sur_l_eau": null, "altitude_m": 804, "denivele_10km_m": 60, "pente_pct": 0.2, "d_halakhel_km": 1884, "d_ocean_km": 362, "d_lac_km": 2, "d_cours_eau_km": 6, "fleuve_nomme": "GEO_FLV_EMISSAIRE_MOPAMA", "debit_proche_m3s": 17, "pluie_mm": 1344, "T_annuelle_C": 22.7, "Tw_hiver_C": 17.3, "Tn_nuit_hiver_C": 9.3, "facies_arin": "hors |'Arin", "milieu_site": "zone_humide_lacustre", "milieux_25km": "{\"eaux_lacustres\": 43, \"zone_humide_lacustre\": 39, \"herbage_arbore\": 17}", "col_proche": "{\"geo_id\": \"GEO_COL_024\", \"nom\": \"Ku-Pámà-Tɨra-te\", \"altitude_m\": 2000, \"distance_km\": 500, \"ouverture\": [4, 11]}", "expositions_calculees": "", "id": "LUR_KUTEKA_SO", "nom": "Kù-téka", "type": "LUR", "facade": "MOP_SO", "confiance": "haute", "note": "Sortie de l'émissaire du Mopámà (transbordement lac/fleuve, barrage Kù-bék-ngúmi).", "ecarts_corpus": 1, "statut": "[PROPOSITION]"}}, {"type": "Feature", "geometry": {"type": "Point", "coordinates": [4.583, 9.048]}, "properties": {"sur_l_eau": null, "altitude_m": 671, "denivele_10km_m": 67, "pente_pct": 0.2, "d_halakhel_km": 1925, "d_ocean_km": 297, "d_lac_km": 56, "d_cours_eau_km": 2, "fleuve_nomme": "GEO_FLV_EMISSAIRE_MOPAMA", "debit_proche_m3s": 49, "pluie_mm": 1586, "T_annuelle_C": 23.5, "Tw_hiver_C": 18.2, "Tn_nuit_hiver_C": 10.2, "facies_arin": "hors |'Arin", "milieu_site": "foret_tropicale_humide", "milieux_25km": "{\"foret_tropicale_humide\": 83, \"herbage_arbore\": 17}", "col_proche": "{\"geo_id\": \"GEO_COL_024\", \"nom\": \"Ku-Pámà-Tɨra-te\", \"altitude_m\": 2000, \"distance_km\": 571, \"ouverture\": [4, 11]}", "expositions_calculees": "", "id": "LUR_KUNGUMI_SO", "nom": "Ku-Ngúmi", "type": "LUR", "facade": "MOP_SO", "confiance": "haute", "note": "Sur l'émissaire, juste en aval du lac (transbordement Mopámà → émissaire, crues de l'émissaire).", "ecarts_corpus": 1, "statut": "[PROPOSITION]"}}, {"type": "Feature", "geometry": {"type": "Point", "coordinates": [0.79, 5.73]}, "properties": {"sur_l_eau": null, "altitude_m": 17, "denivele_10km_m": 65, "pente_pct": 0.0, "d_halakhel_km": 2259, "d_ocean_km": 4, "d_lac_km": 613, "d_cours_eau_km": 11, "fleuve_nomme": "GEO_FLV_EMISSAIRE_MOPAMA", "debit_proche_m3s": 2580, "pluie_mm": 2457, "T_annuelle_C": 27.4, "Tw_hiver_C": 22.9, "Tn_nuit_hiver_C": 14.9, "facies_arin": "hors |'Arin", "milieu_site": "foret_maree", "milieux_25km": "{\"océan\": 49, \"foret_tropicale_humide\": 34, \"foret_maree\": 17}", "col_proche": "{\"geo_id\": \"GEO_COL_024\", \"nom\": \"Ku-Pámà-Tɨra-te\", \"altitude_m\": 2000, \"distance_km\": 1124, \"ouverture\": [4, 11]}", "expositions_calculees": "tempêtes et houle de rivage", "id": "LUR_KUBELAA_SO", "nom": "Kù-Bèláà", "type": "LUR", "facade": "MOP_SO", "confiance": "haute", "note": "Mangroves du delta du Mopámà (ALN-081 : forêt de marée impossible sur un lac d'eau douce à 800 m).", "ecarts_corpus": 0, "statut": "[PROPOSITION]"}}, {"type": "Feature", "geometry": {"type": "Point", "coordinates": [1.571, 6.174]}, "properties": {"sur_l_eau": null, "altitude_m": 30, "denivele_10km_m": 74, "pente_pct": 1.6, "d_halakhel_km": 2210, "d_ocean_km": 2, "d_lac_km": 515, "d_cours_eau_km": 13, "fleuve_nomme": "GEO_FLV_EMISSAIRE_MOPAMA", "debit_proche_m3s": 2134, "pluie_mm": 2357, "T_annuelle_C": 27.3, "Tw_hiver_C": 22.7, "Tn_nuit_hiver_C": 14.7, "facies_arin": "hors |'Arin", "milieu_site": "foret_tropicale_humide", "milieux_25km": "{\"foret_tropicale_humide\": 51, \"océan\": 49}", "col_proche": "{\"geo_id\": \"GEO_COL_024\", \"nom\": \"Ku-Pámà-Tɨra-te\", \"altitude_m\": 2000, \"distance_km\": 1029, \"ouverture\": [4, 11]}", "expositions_calculees": "tempêtes et houle de rivage", "id": "LUR_MAZI-DUM_SO", "nom": "Mázì-Dúm", "type": "LUR", "facade": "MOP_SO", "confiance": "haute", "note": "Mangroves orientales du delta du Mopámà, chenaux instables.", "ecarts_corpus": 1, "statut": "[PROPOSITION]"}}, {"type": "Feature", "geometry": {"type": "Point", "coordinates": [6.113, 9.394]}, "properties": {"sur_l_eau": null, "altitude_m": 807, "denivele_10km_m": 75, "pente_pct": 0.2, "d_halakhel_km": 1909, "d_ocean_km": 395, "d_lac_km": 4, "d_cours_eau_km": 89, "fleuve_nomme": null, "debit_proche_m3s": 8, "pluie_mm": 1732, "T_annuelle_C": 22.7, "Tw_hiver_C": 17.3, "Tn_nuit_hiver_C": 9.3, "facies_arin": "hors |'Arin", "milieu_site": "zone_humide_lacustre", "milieux_25km": "{\"eaux_lacustres\": 47, \"zone_humide_lacustre\": 31, \"foret_tropicale_humide\": 21}", "col_proche": "{\"geo_id\": \"GEO_COL_024\", \"nom\": \"Ku-Pámà-Tɨra-te\", \"altitude_m\": 2000, \"distance_km\": 449, \"ouverture\": [4, 11]}", "expositions_calculees": "", "id": "ZRS_KUSALADI_SO", "nom": "Ku-sáladì", "type": "ZRS", "facade": "MOP_SO", "confiance": "haute", "note": "Lisière du Sud Mopámà : la haute futaie s'ouvre sur l'eau (criques de flottage).", "ecarts_corpus": 0, "statut": "[PROPOSITION]"}}, {"type": "Feature", "geometry": {"type": "Point", "coordinates": [6.288, 8.906]}, "properties": {"sur_l_eau": null, "altitude_m": 607, "denivele_10km_m": 250, "pente_pct": 1.2, "d_halakhel_km": 1955, "d_ocean_km": 359, "d_lac_km": 53, "d_cours_eau_km": 35, "fleuve_nomme": null, "debit_proche_m3s": 18, "pluie_mm": 1565, "T_annuelle_C": 23.9, "Tw_hiver_C": 18.7, "Tn_nuit_hiver_C": 10.7, "facies_arin": "hors |'Arin", "milieu_site": "foret_tropicale_humide", "milieux_25km": "{\"foret_tropicale_humide\": 59, \"herbage_arbore\": 40}", "col_proche": "{\"geo_id\": \"GEO_COL_024\", \"nom\": \"Ku-Pámà-Tɨra-te\", \"altitude_m\": 2000, \"distance_km\": 491, \"ouverture\": [4, 11]}", "expositions_calculees": "", "id": "AUX_LISIERES_BALONGO", "nom": "Lisières Ba-lóngó", "type": "AUX", "facade": null, "confiance": "faible", "note": "« lisières forestières du Sud Mopámà ».", "ecarts_corpus": 0, "statut": "[PROPOSITION]"}}, {"type": "Feature", "geometry": {"type": "Point", "coordinates": [6.607, 8.497]}, "properties": {"sur_l_eau": null, "altitude_m": 394, "denivele_10km_m": 199, "pente_pct": 0.5, "d_halakhel_km": 1987, "d_ocean_km": 342, "d_lac_km": 110, "d_cours_eau_km": 2, "fleuve_nomme": null, "debit_proche_m3s": 375, "pluie_mm": 1633, "T_annuelle_C": 25.1, "Tw_hiver_C": 20.0, "Tn_nuit_hiver_C": 12.0, "facies_arin": "hors |'Arin", "milieu_site": "foret_tropicale_humide", "milieux_25km": "{\"foret_tropicale_humide\": 92, \"zone_humide_lacustre\": 6}", "col_proche": "{\"geo_id\": \"GEO_COL_024\", \"nom\": \"Ku-Pámà-Tɨra-te\", \"altitude_m\": 2000, \"distance_km\": 523, \"ouverture\": [4, 11]}", "expositions_calculees": "crues (lit majeur)", "id": "AUX_PIEMONTS_MUDARHOBI", "nom": "Piémonts du Mù-dárhòbì", "type": "AUX", "facade": null, "confiance": "moyenne", "note": "Piémonts basaltiques du Mù-dárhòbì (S du Mopámà).", "ecarts_corpus": 0, "statut": "[PROPOSITION]"}}, {"type": "Feature", "geometry": {"type": "Point", "coordinates": [1.22, 6.047]}, "properties": {"sur_l_eau": null, "altitude_m": 21, "denivele_10km_m": 80, "pente_pct": 1.7, "d_halakhel_km": 2223, "d_ocean_km": 2, "d_lac_km": 554, "d_cours_eau_km": 13, "fleuve_nomme": "GEO_FLV_EMISSAIRE_MOPAMA", "debit_proche_m3s": 2363, "pluie_mm": 2334, "T_annuelle_C": 27.4, "Tw_hiver_C": 22.8, "Tn_nuit_hiver_C": 14.8, "facies_arin": "hors |'Arin", "milieu_site": "foret_tropicale_humide", "milieux_25km": "{\"foret_tropicale_humide\": 50, \"océan\": 46}", "col_proche": "{\"geo_id\": \"GEO_COL_024\", \"nom\": \"Ku-Pámà-Tɨra-te\", \"altitude_m\": 2000, \"distance_km\": 1066, \"ouverture\": [4, 11]}", "expositions_calculees": "tempêtes et houle de rivage", "id": "AUX_DLT_MOPAMA", "nom": "Estuaire Mopámà", "type": "AUX", "facade": null, "confiance": "haute", "note": "GEO_DLT_MOPAMA.", "ecarts_corpus": 0, "statut": "[PROPOSITION]"}}, {"type": "Feature", "geometry": {"type": "Point", "coordinates": [2.702, 7.408]}, "properties": {"sur_l_eau": null, "altitude_m": 320, "denivele_10km_m": 122, "pente_pct": 0.7, "d_halakhel_km": 2078, "d_ocean_km": 118, "d_lac_km": 330, "d_cours_eau_km": 16, "fleuve_nomme": "GEO_FLV_EMISSAIRE_MOPAMA", "debit_proche_m3s": 12, "pluie_mm": 1764, "T_annuelle_C": 25.6, "Tw_hiver_C": 20.7, "Tn_nuit_hiver_C": 12.7, "facies_arin": "hors |'Arin", "milieu_site": "foret_tropicale_humide", "milieux_25km": "{\"foret_tropicale_humide\": 96}", "col_proche": "{\"geo_id\": \"GEO_COL_024\", \"nom\": \"Ku-Pámà-Tɨra-te\", \"altitude_m\": 2000, \"distance_km\": 844, \"ouverture\": [4, 11]}", "expositions_calculees": "", "id": "ZRS_KUUMANA_SO", "nom": "Ku-ùmanà", "type": "ZRS", "facade": "FOR_SO", "confiance": "haute", "note": "Clairières des forêts-galeries du SO, dans l'arrière-pays de Jáli-lòngò.", "ecarts_corpus": 0, "statut": "[PROPOSITION]"}}, {"type": "Feature", "geometry": {"type": "Point", "coordinates": [24.805, 6.205]}, "properties": {"sur_l_eau": null, "altitude_m": 976, "denivele_10km_m": 67, "pente_pct": 0.3, "d_halakhel_km": 1934, "d_ocean_km": 1679, "d_lac_km": 46, "d_cours_eau_km": 34, "fleuve_nomme": null, "debit_proche_m3s": 38, "pluie_mm": 2154, "T_annuelle_C": 21.6, "Tw_hiver_C": 17.0, "Tn_nuit_hiver_C": 9.0, "facies_arin": "hors |'Arin", "milieu_site": "foret_tropicale_humide", "milieux_25km": "{\"foret_tropicale_humide\": 98}", "col_proche": "{\"geo_id\": \"GEO_COL_008\", \"nom\": \"Šaqra-t'em\", \"altitude_m\": 2400, \"distance_km\": 695, \"ouverture\": [5, 10]}", "expositions_calculees": "", "id": "ZRS_SAKUMADI_FORS", "nom": "Sa-kúmadì", "type": "ZRS", "facade": "FOR_S", "confiance": "haute", "note": "Haute futaie de la rive S du Tùmázì.", "ecarts_corpus": 0, "statut": "[PROPOSITION]"}}, {"type": "Feature", "geometry": {"type": "Point", "coordinates": [23.992, 5.904]}, "properties": {"sur_l_eau": null, "altitude_m": 939, "denivele_10km_m": 78, "pente_pct": 0.1, "d_halakhel_km": 1963, "d_ocean_km": 1586, "d_lac_km": 80, "d_cours_eau_km": 28, "fleuve_nomme": null, "debit_proche_m3s": 66, "pluie_mm": 2410, "T_annuelle_C": 21.9, "Tw_hiver_C": 17.3, "Tn_nuit_hiver_C": 9.3, "facies_arin": "hors |'Arin", "milieu_site": "foret_tropicale_humide", "milieux_25km": "{\"foret_tropicale_humide\": 100}", "col_proche": "{\"geo_id\": \"GEO_COL_008\", \"nom\": \"Šaqra-t'em\", \"altitude_m\": 2400, \"distance_km\": 730, \"ouverture\": [5, 10]}", "expositions_calculees": "", "id": "ZRS_KUPEPANA_FORS", "nom": "Ku-pèpanà", "type": "ZRS", "facade": "FOR_S", "confiance": "haute", "note": "Lisières de la haute futaie (FOR_S, S du Tùmázì) ; « ouvrant sur le Sud Mopámà » est incompatible (1 900 km) : voir la fiche.", "ecarts_corpus": 0, "statut": "[PROPOSITION]"}}, {"type": "Feature", "geometry": {"type": "Point", "coordinates": [24.773, 8.717]}, "properties": {"sur_l_eau": "lac", "altitude_m": null, "denivele_10km_m": 622, "pente_pct": 13.3, "d_halakhel_km": 1646, "d_ocean_km": 1745, "d_lac_km": 0, "d_cours_eau_km": 90, "fleuve_nomme": null, "debit_proche_m3s": 7, "pluie_mm": 1706, "T_annuelle_C": 27.5, "Tw_hiver_C": 22.3, "Tn_nuit_hiver_C": 14.3, "facies_arin": "hors |'Arin", "milieu_site": "eaux_lacustres", "milieux_25km": "{\"foret_tropicale_humide\": 52, \"eaux_lacustres\": 47}", "col_proche": "{\"geo_id\": \"GEO_COL_008\", \"nom\": \"Šaqra-t'em\", \"altitude_m\": 2400, \"distance_km\": 417, \"ouverture\": [5, 10]}", "expositions_calculees": "", "id": "LUR_KUBEKA_SC", "nom": "Kù-békà", "type": "LUR", "facade": "TUM_SC", "confiance": "haute", "note": "Cité sur pilotis (interdit de bâtir sur la terre ferme), près de la rive N : débouché des routes des cols (RT_010) et des rives N (Ku-Nómà, Ku-kànadì).", "ecarts_corpus": 0, "statut": "[PROPOSITION]"}}, {"type": "Feature", "geometry": {"type": "Point", "coordinates": [23.196, 6.839]}, "properties": {"sur_l_eau": null, "altitude_m": 951, "denivele_10km_m": 498, "pente_pct": 9.9, "d_halakhel_km": 1854, "d_ocean_km": 1522, "d_lac_km": 2, "d_cours_eau_km": 53, "fleuve_nomme": null, "debit_proche_m3s": 73, "pluie_mm": 1135, "T_annuelle_C": 21.8, "Tw_hiver_C": 17.1, "Tn_nuit_hiver_C": 9.1, "facies_arin": "hors |'Arin", "milieu_site": "herbage_arbore", "milieux_25km": "{\"herbage_arbore\": 68, \"eaux_lacustres\": 30}", "col_proche": "{\"geo_id\": \"GEO_COL_008\", \"nom\": \"Šaqra-t'em\", \"altitude_m\": 2400, \"distance_km\": 640, \"ouverture\": [5, 10]}", "expositions_calculees": "", "id": "LUR_KUPILA-MUSUKU_SC", "nom": "Ku-Pɨla-Mù-Sùkú", "type": "LUR", "facade": "TUM_SC", "confiance": "haute", "note": "Rive SO, au pied des collines Kù-kɨ́bò (escarpement de Q'eša-Kɨ́bò, RT_069).", "ecarts_corpus": 0, "statut": "[PROPOSITION]"}}, {"type": "Feature", "geometry": {"type": "Point", "coordinates": [21.905, 6.902]}, "properties": {"sur_l_eau": null, "altitude_m": 1219, "denivele_10km_m": 166, "pente_pct": 2.2, "d_halakhel_km": 1852, "d_ocean_km": 1387, "d_lac_km": 82, "d_cours_eau_km": 49, "fleuve_nomme": null, "debit_proche_m3s": 31, "pluie_mm": 1162, "T_annuelle_C": 20.2, "Tw_hiver_C": 15.4, "Tn_nuit_hiver_C": 7.4, "facies_arin": "hors |'Arin", "milieu_site": "herbage_arbore", "milieux_25km": "{\"herbage_arbore\": 54, \"foret_montagne\": 45}", "col_proche": "{\"geo_id\": \"GEO_COL_008\", \"nom\": \"Šaqra-t'em\", \"altitude_m\": 2400, \"distance_km\": 680, \"ouverture\": [5, 10]}", "expositions_calculees": "", "id": "LUR_KUKIBO_QESHA_SC", "nom": "Q'eša-Kɨ́bò", "type": "LUR", "facade": "TUM_SC", "confiance": "haute", "note": "Sur les collines Kù-kɨ́bò au-dessus du lac (portage d'escarpement, rapides).", "ecarts_corpus": 0, "statut": "[PROPOSITION]"}}, {"type": "Feature", "geometry": {"type": "Point", "coordinates": [23.403, 7.202]}, "properties": {"sur_l_eau": "lac", "altitude_m": null, "denivele_10km_m": 524, "pente_pct": 13.4, "d_halakhel_km": 1813, "d_ocean_km": 1554, "d_lac_km": 0, "d_cours_eau_km": 65, "fleuve_nomme": null, "debit_proche_m3s": 3, "pluie_mm": 1122, "T_annuelle_C": 27.5, "Tw_hiver_C": 22.7, "Tn_nuit_hiver_C": 14.7, "facies_arin": "hors |'Arin", "milieu_site": "eaux_lacustres", "milieux_25km": "{\"eaux_lacustres\": 74, \"herbage_arbore\": 25}", "col_proche": "{\"geo_id\": \"GEO_COL_008\", \"nom\": \"Šaqra-t'em\", \"altitude_m\": 2400, \"distance_km\": 596, \"ouverture\": [5, 10]}", "expositions_calculees": "", "id": "ZRS_KU-PILA-DI_SC", "nom": "Ku-Pɨla-dì", "type": "ZRS", "facade": "TUM_SC", "confiance": "haute", "note": "Récif-mère au large de Ku-Pɨla-Mù-Sùkú.", "ecarts_corpus": 0, "statut": "[PROPOSITION]"}}, {"type": "Feature", "geometry": {"type": "Point", "coordinates": [24.088, 6.949]}, "properties": {"sur_l_eau": "lac", "altitude_m": null, "denivele_10km_m": 502, "pente_pct": 1.4, "d_halakhel_km": 1844, "d_ocean_km": 1619, "d_lac_km": 0, "d_cours_eau_km": 59, "fleuve_nomme": null, "debit_proche_m3s": 3, "pluie_mm": 1283, "T_annuelle_C": 27.5, "Tw_hiver_C": 22.7, "Tn_nuit_hiver_C": 14.7, "facies_arin": "hors |'Arin", "milieu_site": "eaux_lacustres", "milieux_25km": "{\"eaux_lacustres\": 76, \"herbage_arbore\": 15, \"foret_tropicale_humide\": 10}", "col_proche": "{\"geo_id\": \"GEO_COL_008\", \"nom\": \"Šaqra-t'em\", \"altitude_m\": 2400, \"distance_km\": 614, \"ouverture\": [5, 10]}", "expositions_calculees": "", "id": "ZRS_KU-SUKU-NA_SC", "nom": "Ku-Sùkú-nà", "type": "ZRS", "facade": "TUM_SC", "confiance": "haute", "note": "Hauts-fonds rocheux du S (banc du Grand Poisson, temple Sa-nùbè yì Mù-Sùkú).", "ecarts_corpus": 0, "statut": "[PROPOSITION]"}}, {"type": "Feature", "geometry": {"type": "Point", "coordinates": [26.255, 8.308]}, "properties": {"sur_l_eau": "lac", "altitude_m": null, "denivele_10km_m": 406, "pente_pct": 9.9, "d_halakhel_km": 1715, "d_ocean_km": 1666, "d_lac_km": 0, "d_cours_eau_km": 58, "fleuve_nomme": null, "debit_proche_m3s": 10, "pluie_mm": 2250, "T_annuelle_C": 27.5, "Tw_hiver_C": 22.4, "Tn_nuit_hiver_C": 14.4, "facies_arin": "hors |'Arin", "milieu_site": "eaux_lacustres", "milieux_25km": "{\"foret_tropicale_humide\": 51, \"eaux_lacustres\": 49}", "col_proche": "{\"geo_id\": \"GEO_COL_009\", \"nom\": \"Kurel-ahek\", \"altitude_m\": 2150, \"distance_km\": 476, \"ouverture\": [4, 11]}", "expositions_calculees": "", "id": "ZRS_KU-LEMBE_SC", "nom": "Ku-Lémbè", "type": "ZRS", "facade": "TUM_SC", "confiance": "haute", "note": "Hauts-fonds brumeux du NE.", "ecarts_corpus": 0, "statut": "[PROPOSITION]"}}, {"type": "Feature", "geometry": {"type": "Point", "coordinates": [25.331, 8.371]}, "properties": {"sur_l_eau": "lac", "altitude_m": null, "denivele_10km_m": 168, "pente_pct": 1.7, "d_halakhel_km": 1692, "d_ocean_km": 1752, "d_lac_km": 0, "d_cours_eau_km": 88, "fleuve_nomme": null, "debit_proche_m3s": 3, "pluie_mm": 2009, "T_annuelle_C": 27.5, "Tw_hiver_C": 22.4, "Tn_nuit_hiver_C": 14.4, "facies_arin": "hors |'Arin", "milieu_site": "eaux_lacustres", "milieux_25km": "{\"eaux_lacustres\": 85, \"foret_tropicale_humide\": 15}", "col_proche": "{\"geo_id\": \"GEO_COL_009\", \"nom\": \"Kurel-ahek\", \"altitude_m\": 2150, \"distance_km\": 463, \"ouverture\": [4, 11]}", "expositions_calculees": "", "id": "ZRS_KU-ZABA_SC", "nom": "Kù-Zàbà", "type": "ZRS", "facade": "TUM_SC", "confiance": "haute", "note": "Plate-forme flottante au large de Kù-békà.", "ecarts_corpus": 0, "statut": "[PROPOSITION]"}}, {"type": "Feature", "geometry": {"type": "Point", "coordinates": [25.65, 7.013]}, "properties": {"sur_l_eau": "lac", "altitude_m": null, "denivele_10km_m": 197, "pente_pct": 1.2, "d_halakhel_km": 1852, "d_ocean_km": 1788, "d_lac_km": 0, "d_cours_eau_km": 103, "fleuve_nomme": null, "debit_proche_m3s": 1, "pluie_mm": 1481, "T_annuelle_C": 27.5, "Tw_hiver_C": 22.7, "Tn_nuit_hiver_C": 14.7, "facies_arin": "hors |'Arin", "milieu_site": "eaux_lacustres", "milieux_25km": "{\"eaux_lacustres\": 90, \"foret_tropicale_humide\": 6}", "col_proche": "{\"geo_id\": \"GEO_COL_009\", \"nom\": \"Kurel-ahek\", \"altitude_m\": 2150, \"distance_km\": 613, \"ouverture\": [4, 11]}", "expositions_calculees": "", "id": "ZRS_MI-TONO_SC", "nom": "Mi-Tónò", "type": "ZRS", "facade": "TUM_SC", "confiance": "haute", "note": "Gouffre : point le plus profond du lac.", "ecarts_corpus": 0, "statut": "[PROPOSITION]"}}, {"type": "Feature", "geometry": {"type": "Point", "coordinates": [23.801, 8.843]}, "properties": {"sur_l_eau": null, "altitude_m": 1071, "denivele_10km_m": 656, "pente_pct": 4.7, "d_halakhel_km": 1624, "d_ocean_km": 1649, "d_lac_km": 4, "d_cours_eau_km": 103, "fleuve_nomme": null, "debit_proche_m3s": 19, "pluie_mm": 1383, "T_annuelle_C": 21.1, "Tw_hiver_C": 15.9, "Tn_nuit_hiver_C": 7.9, "facies_arin": "hors |'Arin", "milieu_site": "herbage_arbore", "milieux_25km": "{\"herbage_arbore\": 63, \"eaux_lacustres\": 29, \"foret_tropicale_humide\": 7}", "col_proche": "{\"geo_id\": \"GEO_COL_008\", \"nom\": \"Šaqra-t'em\", \"altitude_m\": 2400, \"distance_km\": 410, \"ouverture\": [5, 10]}", "expositions_calculees": "", "id": "ZRS_KU-PELE-SO_SC", "nom": "Ku-Pélé-sò", "type": "ZRS", "facade": "TUM_SC", "confiance": "haute", "note": "Rive N : vergers de rive.", "ecarts_corpus": 0, "statut": "[PROPOSITION]"}}, {"type": "Feature", "geometry": {"type": "Point", "coordinates": [22.463, 7.329]}, "properties": {"sur_l_eau": null, "altitude_m": 1028, "denivele_10km_m": 461, "pente_pct": 2.1, "d_halakhel_km": 1799, "d_ocean_km": 1459, "d_lac_km": 4, "d_cours_eau_km": 31, "fleuve_nomme": null, "debit_proche_m3s": 5, "pluie_mm": 886, "T_annuelle_C": 21.3, "Tw_hiver_C": 16.5, "Tn_nuit_hiver_C": 8.5, "facies_arin": "hors |'Arin", "milieu_site": "herbage_arbore", "milieux_25km": "{\"herbage_arbore\": 78, \"eaux_lacustres\": 17}", "col_proche": "{\"geo_id\": \"GEO_COL_008\", \"nom\": \"Šaqra-t'em\", \"altitude_m\": 2400, \"distance_km\": 612, \"ouverture\": [5, 10]}", "expositions_calculees": "", "id": "ZRS_KU-BANGA_SC", "nom": "Ku-Bángá", "type": "ZRS", "facade": "TUM_SC", "confiance": "haute", "note": "Rive SO au contact des piémonts des collines Kù-kɨ́bò (et non du Mù-dárhòbì, à 1 900 km).", "ecarts_corpus": 0, "statut": "[PROPOSITION]"}}, {"type": "Feature", "geometry": {"type": "Point", "coordinates": [26.701, 8.292]}, "properties": {"sur_l_eau": null, "altitude_m": 897, "denivele_10km_m": 354, "pente_pct": 1.2, "d_halakhel_km": 1726, "d_ocean_km": 1624, "d_lac_km": 4, "d_cours_eau_km": 64, "fleuve_nomme": null, "debit_proche_m3s": 9, "pluie_mm": 2316, "T_annuelle_C": 22.1, "Tw_hiver_C": 17.1, "Tn_nuit_hiver_C": 9.1, "facies_arin": "hors |'Arin", "milieu_site": "foret_tropicale_humide", "milieux_25km": "{\"foret_tropicale_humide\": 70, \"eaux_lacustres\": 30}", "col_proche": "{\"geo_id\": \"GEO_COL_013\", \"nom\": \"P'etsul-!ama\", \"altitude_m\": 2600, \"distance_km\": 475, \"ouverture\": [5, 10]}", "expositions_calculees": "", "id": "ZRS_KU-NOMA_SC", "nom": "Ku-Nómà", "type": "ZRS", "facade": "TUM_SC", "confiance": "haute", "note": "Plaine de rive du NE : terres céréalières.", "ecarts_corpus": 1, "statut": "[PROPOSITION]"}}, {"type": "Feature", "geometry": {"type": "Point", "coordinates": [22.686, 7.992]}, "properties": {"sur_l_eau": null, "altitude_m": 1011, "denivele_10km_m": 590, "pente_pct": 9.7, "d_halakhel_km": 1722, "d_ocean_km": 1505, "d_lac_km": 4, "d_cours_eau_km": 61, "fleuve_nomme": null, "debit_proche_m3s": 3, "pluie_mm": 852, "T_annuelle_C": 21.4, "Tw_hiver_C": 16.4, "Tn_nuit_hiver_C": 8.4, "facies_arin": "hors |'Arin", "milieu_site": "herbage_arbore", "milieux_25km": "{\"herbage_arbore\": 52, \"eaux_lacustres\": 47}", "col_proche": "{\"geo_id\": \"GEO_COL_008\", \"nom\": \"Šaqra-t'em\", \"altitude_m\": 2400, \"distance_km\": 535, \"ouverture\": [5, 10]}", "expositions_calculees": "", "id": "ZRS_KUKANADI_SC", "nom": "Ku-kànadì", "type": "ZRS", "facade": "TUM_SC", "confiance": "haute", "note": "Berges basses du bras N (NO du lac), roselières.", "ecarts_corpus": 0, "statut": "[PROPOSITION]"}}, {"type": "Feature", "geometry": {"type": "Point", "coordinates": [-9.106, 22.301]}, "properties": {"sur_l_eau": null, "altitude_m": 1766, "denivele_10km_m": 1459, "pente_pct": 14.9, "d_halakhel_km": 558, "d_ocean_km": 633, "d_lac_km": 1957, "d_cours_eau_km": 368, "fleuve_nomme": null, "debit_proche_m3s": 0, "pluie_mm": 234, "T_annuelle_C": 12.3, "Tw_hiver_C": 4.1, "Tn_nuit_hiver_C": -6.2, "facies_arin": "Hiver Jaune", "milieu_site": "steppe_piemont", "milieux_25km": "{\"steppe_piemont\": 89, \"prairie_altitude\": 6}", "col_proche": "{\"geo_id\": \"GEO_COL_038\", \"nom\": \"Hlenik-k'eso\", \"altitude_m\": 2000, \"distance_km\": 56, \"ouverture\": [4, 11]}", "expositions_calculees": "éboulements, glissements (versants raides)", "id": "LUR_BANNAKTI_NO", "nom": "Bannaktì", "type": "LUR", "facade": "URU_NO", "confiance": "haute", "note": "Halekh occidental, au cœur du territoire KOL (cols Kurahek, Hlenik-k'eso, Pēlakh-t'sira) ; pistes vers Stalomar-Kot (RT_066).", "ecarts_corpus": 0, "statut": "[PROPOSITION]"}}, {"type": "Feature", "geometry": {"type": "Point", "coordinates": [4.407, 17.796]}, "properties": {"sur_l_eau": null, "altitude_m": 1596, "denivele_10km_m": 676, "pente_pct": 7.2, "d_halakhel_km": 918, "d_ocean_km": 1227, "d_lac_km": 772, "d_cours_eau_km": 100, "fleuve_nomme": null, "debit_proche_m3s": 17, "pluie_mm": 1046, "T_annuelle_C": 15.3, "Tw_hiver_C": 8.1, "Tn_nuit_hiver_C": 0.1, "facies_arin": "Hiver Gris", "milieu_site": "foret_montagne", "milieux_25km": "{\"foret_montagne\": 98}", "col_proche": "{\"geo_id\": \"GEO_COL_028\", \"nom\": \"Ku-Ténɨlkh-te\", \"altitude_m\": 2300, \"distance_km\": 51, \"ouverture\": [5, 10]}", "expositions_calculees": "", "id": "LUR_TAMAR-KHU_CENTRE", "nom": "!Tamar-||Khu", "type": "LUR", "facade": "URU_SO", "confiance": "haute", "note": "Vallées S de lóngò (URU_SO), près du col Ku-Ténɨlkh-te.", "ecarts_corpus": 0, "statut": "[PROPOSITION]"}}, {"type": "Feature", "geometry": {"type": "Point", "coordinates": [23.658, 22.242]}, "properties": {"sur_l_eau": null, "altitude_m": 1198, "denivele_10km_m": 39, "pente_pct": 0.1, "d_halakhel_km": 90, "d_ocean_km": 1021, "d_lac_km": 11, "d_cours_eau_km": 2, "fleuve_nomme": "|Na-khuwel / Ḥawqal", "debit_proche_m3s": 5, "pluie_mm": 676, "T_annuelle_C": 15.7, "Tw_hiver_C": 7.5, "Tn_nuit_hiver_C": -0.5, "facies_arin": "Hiver Gris", "milieu_site": "zone_humide_lacustre", "milieux_25km": "{\"zone_humide_lacustre\": 31, \"plaine_alluviale\": 28, \"eaux_lacustres\": 20, \"herbage_arbore\": 13}", "col_proche": "{\"geo_id\": \"GEO_COL_005\", \"nom\": \"Qaṣūl-tɨra\", \"altitude_m\": 2700, \"distance_km\": 541, \"ouverture\": [6, 10]}", "expositions_calculees": "", "id": "LUR_ZAGAKH-TIR_NE", "nom": "Zagakh-TƗr", "type": "LUR", "facade": "URU_C", "confiance": "haute", "note": "Citadelle-écluse sur l'émissaire de l'Akhtir (Ḥawqal), à la sortie du lac.", "ecarts_corpus": 0, "statut": "[PROPOSITION]"}}, {"type": "Feature", "geometry": {"type": "Point", "coordinates": [17.905, 20.102]}, "properties": {"sur_l_eau": null, "altitude_m": 3708, "denivele_10km_m": 2443, "pente_pct": 26.8, "d_halakhel_km": 517, "d_ocean_km": 1176, "d_lac_km": 369, "d_cours_eau_km": 211, "fleuve_nomme": null, "debit_proche_m3s": 0, "pluie_mm": 103, "T_annuelle_C": 1.6, "Tw_hiver_C": -6.1, "Tn_nuit_hiver_C": -18.1, "facies_arin": "Hiver Blanc", "milieu_site": "prairie_altitude", "milieux_25km": "{\"zone_periglaciaire\": 53, \"prairie_altitude\": 40, \"glacier\": 5}", "col_proche": "{\"geo_id\": \"GEO_COL_003\", \"nom\": \"Ṣabūl-tɨkh\", \"altitude_m\": 2900, \"distance_km\": 237, \"ouverture\": [6, 10]}", "expositions_calculees": "avalanches / chutes de pierres (|'Arin); éboulements, glissements (versants raides); hypoxie légère (> 2 500 m); Hiver Blanc : neige et gel durables; aridité (< 150 mm)", "id": "LUR_URUM-SAMEL_CENTRE", "nom": "|'Urum-!Samel", "type": "LUR", "facade": "URU_C", "confiance": "haute", "note": "Seuls glaciers actifs du Beliet : flancs de |'Ara-Sukhì (k'ara). Bourg sous les glaciers.", "ecarts_corpus": 0, "statut": "[PROPOSITION]"}}, {"type": "Feature", "geometry": {"type": "Point", "coordinates": [33.41, 9.598]}, "properties": {"sur_l_eau": null, "altitude_m": 2251, "denivele_10km_m": 1640, "pente_pct": 6.7, "d_halakhel_km": 1851, "d_ocean_km": 929, "d_lac_km": 691, "d_cours_eau_km": 38, "fleuve_nomme": null, "debit_proche_m3s": 35, "pluie_mm": 3278, "T_annuelle_C": 14.0, "Tw_hiver_C": 8.6, "Tn_nuit_hiver_C": 0.6, "facies_arin": "Hiver Gris", "milieu_site": "foret_montagne", "milieux_25km": "{\"foret_montagne\": 88, \"foret_tropicale_humide\": 12}", "col_proche": "{\"geo_id\": \"GEO_COL_017\", \"nom\": \"T'amr-khɨna\", \"altitude_m\": 2450, \"distance_km\": 23, \"ouverture\": [5, 10]}", "expositions_calculees": "avalanches / chutes de pierres (|'Arin); éboulements, glissements (versants raides)", "id": "LUR_UKH-SEK_CENTRE", "nom": "|'Ukh-||Sék", "type": "LUR", "facade": "URU_C", "confiance": "haute", "note": "Sanctuaire-col sur la crête du prolongement SE de k'ara (côté Tɨrakh), à l'ouest du col T'araq-ɨnkh qu'il faut franchir pour gagner Q'irel-Ts'idar (RT_009) ; la haute corniche le relie à Hae Ts'i-K'uré (RT_025).", "ecarts_corpus": 1, "statut": "[PROPOSITION]"}}, {"type": "Feature", "geometry": {"type": "Point", "coordinates": [34.845, 8.906]}, "properties": {"sur_l_eau": null, "altitude_m": 2453, "denivele_10km_m": 825, "pente_pct": 8.7, "d_halakhel_km": 2006, "d_ocean_km": 879, "d_lac_km": 825, "d_cours_eau_km": 31, "fleuve_nomme": null, "debit_proche_m3s": 18, "pluie_mm": 3079, "T_annuelle_C": 12.8, "Tw_hiver_C": 7.6, "Tn_nuit_hiver_C": -0.4, "facies_arin": "Hiver Gris", "milieu_site": "foret_montagne", "milieux_25km": "{\"foret_montagne\": 100}", "col_proche": "{\"geo_id\": \"GEO_COL_010\", \"nom\": \"T'araq-ɨnkh\", \"altitude_m\": 2400, \"distance_km\": 10, \"ouverture\": [5, 10]}", "expositions_calculees": "avalanches / chutes de pierres (|'Arin)", "id": "LUR_ETHAK-KEL_CENTRE", "nom": "||Ethak-Kél-Ts'idar", "type": "LUR", "facade": "URU_C", "confiance": "haute", "note": "Carrefour de cols au col T'araq-ɨnkh (GEO_COL_010), passage commun de RT_009, RT_053 et RT_062.", "ecarts_corpus": 0, "statut": "[PROPOSITION]"}}, {"type": "Feature", "geometry": {"type": "Point", "coordinates": [-2.094, 22.933]}, "properties": {"sur_l_eau": null, "altitude_m": 2842, "denivele_10km_m": 803, "pente_pct": 4.6, "d_halakhel_km": 376, "d_ocean_km": 1087, "d_lac_km": 1540, "d_cours_eau_km": 234, "fleuve_nomme": null, "debit_proche_m3s": 0, "pluie_mm": 64, "T_annuelle_C": 5.5, "Tw_hiver_C": -2.8, "Tn_nuit_hiver_C": -14.8, "facies_arin": "Hiver Blanc", "milieu_site": "prairie_altitude", "milieux_25km": "{\"prairie_altitude\": 68, \"desert_pierreux\": 29}", "col_proche": "{\"geo_id\": \"GEO_COL_032\", \"nom\": \"Hlelak-!uri\", \"altitude_m\": 2900, \"distance_km\": 3, \"ouverture\": [6, 9]}", "expositions_calculees": "avalanches / chutes de pierres (|'Arin); hypoxie légère (> 2 500 m); Hiver Blanc : neige et gel durables; aridité (< 150 mm)", "id": "LUR_TSIDAR-SEK_CENTRE", "nom": "Ts'idar-‖Sek", "type": "LUR", "facade": "URU_C", "confiance": "haute", "note": "Verrou de crête entre la confédération Költ (Bannaktì) et la façade HKL_S/SO (Cherbekh-khem) : crête de halekh oriental, col Hlelak-!uri.", "ecarts_corpus": 0, "statut": "[PROPOSITION]"}}, {"type": "Feature", "geometry": {"type": "Point", "coordinates": [34.351, 8.623]}, "properties": {"sur_l_eau": null, "altitude_m": 1382, "denivele_10km_m": 588, "pente_pct": 3.1, "d_halakhel_km": 2004, "d_ocean_km": 939, "d_lac_km": 767, "d_cours_eau_km": 14, "fleuve_nomme": null, "debit_proche_m3s": 90, "pluie_mm": 3805, "T_annuelle_C": 19.2, "Tw_hiver_C": 14.1, "Tn_nuit_hiver_C": 6.1, "facies_arin": "hors |'Arin", "milieu_site": "foret_montagne", "milieux_25km": "{\"foret_tropicale_humide\": 55, \"foret_montagne\": 45}", "col_proche": "{\"geo_id\": \"GEO_COL_010\", \"nom\": \"T'araq-ɨnkh\", \"altitude_m\": 2400, \"distance_km\": 53, \"ouverture\": [5, 10]}", "expositions_calculees": "", "id": "LUR_GITES-TSIDAR_SE", "nom": "Gîtes-Ts'idar", "type": "LUR", "facade": "URU_SE", "confiance": "haute", "note": "Pied de l'escarpement sous les cols T'araq-ɨnkh et Q'usa-||ema (territoire TSD), au départ des rivières qui descendent vers la confluence de Tanāḥil (RT_031) et vers l'ouest (RT_068).", "ecarts_corpus": 1, "statut": "[PROPOSITION]"}}, {"type": "Feature", "geometry": {"type": "Point", "coordinates": [35.307, 8.717]}, "properties": {"sur_l_eau": null, "altitude_m": 2272, "denivele_10km_m": 633, "pente_pct": 2.7, "d_halakhel_km": 2054, "d_ocean_km": 854, "d_lac_km": 872, "d_cours_eau_km": 21, "fleuve_nomme": null, "debit_proche_m3s": 16, "pluie_mm": 2500, "T_annuelle_C": 13.9, "Tw_hiver_C": 8.7, "Tn_nuit_hiver_C": 0.7, "facies_arin": "Hiver Gris", "milieu_site": "foret_montagne", "milieux_25km": "{\"foret_montagne\": 100}", "col_proche": "{\"geo_id\": \"GEO_COL_016\", \"nom\": \"Q'usa-||ema\", \"altitude_m\": 2100, \"distance_km\": 20, \"ouverture\": [4, 11]}", "expositions_calculees": "avalanches / chutes de pierres (|'Arin)", "id": "LUR_TSIDAR-RE_SE", "nom": "Ts'idar-ré", "type": "LUR", "facade": "URU_SE", "confiance": "haute", "note": "Haut-col fortifié près du col Q'usa-||ema (GEO_COL_016, rattaché à l'Ordre du Col au registre).", "ecarts_corpus": 0, "statut": "[PROPOSITION]"}}, {"type": "Feature", "geometry": {"type": "Point", "coordinates": [39.227, 13.423]}, "properties": {"sur_l_eau": null, "altitude_m": 1981, "denivele_10km_m": 378, "pente_pct": 0.5, "d_halakhel_km": 1842, "d_ocean_km": 194, "d_lac_km": 1428, "d_cours_eau_km": 54, "fleuve_nomme": null, "debit_proche_m3s": 0, "pluie_mm": 94, "T_annuelle_C": 15.0, "Tw_hiver_C": 8.8, "Tn_nuit_hiver_C": -3.2, "facies_arin": "Hiver Jaune", "milieu_site": "steppe_piemont", "milieux_25km": "{\"desert_pierreux\": 69, \"depression_saline\": 17, \"steppe_piemont\": 14}", "col_proche": "{\"geo_id\": \"GEO_COL_046\", \"nom\": \"Ṣamar-q'ut\", \"altitude_m\": 2200, \"distance_km\": 108, \"ouverture\": [4, 11]}", "expositions_calculees": "aridité (< 150 mm)", "id": "LUR_KUMAL-NAQRA_SE", "nom": "K'umal-Naqra", "type": "LUR", "facade": "URU_SE", "confiance": "haute", "note": "Vallées encaissées du rebord oriental du plateau, au-dessus de la mer Rouge (RT_067) et à ~350 km de la haute Tanāḥil (RT_063).", "ecarts_corpus": 0, "statut": "[PROPOSITION]"}}, {"type": "Feature", "geometry": {"type": "Point", "coordinates": [30.351, 10.743]}, "properties": {"sur_l_eau": null, "altitude_m": 1886, "denivele_10km_m": 615, "pente_pct": 7.3, "d_halakhel_km": 1574, "d_ocean_km": 1132, "d_lac_km": 475, "d_cours_eau_km": 84, "fleuve_nomme": null, "debit_proche_m3s": 10, "pluie_mm": 703, "T_annuelle_C": 16.2, "Tw_hiver_C": 10.6, "Tn_nuit_hiver_C": 2.6, "facies_arin": "hors |'Arin", "milieu_site": "herbage_arbore", "milieux_25km": "{\"herbage_arbore\": 55, \"foret_montagne\": 41}", "col_proche": "{\"geo_id\": \"GEO_COL_013\", \"nom\": \"P'etsul-!ama\", \"altitude_m\": 2600, \"distance_km\": 40, \"ouverture\": [5, 10]}", "expositions_calculees": "", "id": "LUR_HAE-TSI-KURE_SE", "nom": "Hae Ts'i-K'uré", "type": "LUR", "facade": "URU_SE", "confiance": "haute", "note": "Monastère au pied du col P'etsul-!ama (GEO_COL_013, 2 600 m), dernière rupture de charge avant le col.", "ecarts_corpus": 1, "statut": "[PROPOSITION]"}}, {"type": "Feature", "geometry": {"type": "Point", "coordinates": [38.956, 15.245]}, "properties": {"sur_l_eau": null, "altitude_m": 2299, "denivele_10km_m": 728, "pente_pct": 3.1, "d_halakhel_km": 1661, "d_ocean_km": 63, "d_lac_km": 1495, "d_cours_eau_km": 170, "fleuve_nomme": null, "debit_proche_m3s": 0, "pluie_mm": 106, "T_annuelle_C": 12.2, "Tw_hiver_C": 5.6, "Tn_nuit_hiver_C": -6.3, "facies_arin": "Hiver Jaune", "milieu_site": "desert_pierreux", "milieux_25km": "{\"desert_pierreux\": 54, \"steppe_piemont\": 46}", "col_proche": "{\"geo_id\": \"GEO_COL_045\", \"nom\": \"Ḥazīr-k'ama\", \"altitude_m\": 2100, \"distance_km\": 23, \"ouverture\": [4, 11]}", "expositions_calculees": "aridité (< 150 mm)", "id": "LUR_PI-KURE-NESHA_SE", "nom": "P'i-K'uré-Neša", "type": "LUR", "facade": "URU_SE", "confiance": "haute", "note": "Monastère-banque sur le rebord du plateau au-dessus de K'uré-tawa (hub_rattache).", "ecarts_corpus": 0, "statut": "[PROPOSITION]"}}, {"type": "Feature", "geometry": {"type": "Point", "coordinates": [39.052, 14.845]}, "properties": {"sur_l_eau": null, "altitude_m": 1662, "denivele_10km_m": 228, "pente_pct": 0.4, "d_halakhel_km": 1703, "d_ocean_km": 80, "d_lac_km": 1482, "d_cours_eau_km": 135, "fleuve_nomme": null, "debit_proche_m3s": 0, "pluie_mm": 98, "T_annuelle_C": 16.2, "Tw_hiver_C": 9.7, "Tn_nuit_hiver_C": -2.3, "facies_arin": "Hiver Jaune", "milieu_site": "depression_saline", "milieux_25km": "{\"desert_pierreux\": 61, \"depression_saline\": 23, \"steppe_piemont\": 16}", "col_proche": "{\"geo_id\": \"GEO_COL_044\", \"nom\": \"ʿUbayl-t'iq\", \"altitude_m\": 2000, \"distance_km\": 54, \"ouverture\": [4, 11]}", "expositions_calculees": "aridité (< 150 mm)", "id": "LUR_HAE-PESHU_SE", "nom": "Hae-P'ešu", "type": "LUR", "facade": "URU_SE", "confiance": "haute", "note": "Forteresse de sous-traitance voisine de P'i-K'uré-Neša (commandes des Nešaña).", "ecarts_corpus": 0, "statut": "[PROPOSITION]"}}, {"type": "Feature", "geometry": {"type": "Point", "coordinates": [35.896, 9.3]}, "properties": {"sur_l_eau": null, "altitude_m": 1845, "denivele_10km_m": 823, "pente_pct": 9.2, "d_halakhel_km": 2037, "d_ocean_km": 770, "d_lac_km": 946, "d_cours_eau_km": 14, "fleuve_nomme": null, "debit_proche_m3s": 82, "pluie_mm": 1368, "T_annuelle_C": 16.4, "Tw_hiver_C": 11.1, "Tn_nuit_hiver_C": 3.1, "facies_arin": "hors |'Arin", "milieu_site": "foret_montagne", "milieux_25km": "{\"foret_montagne\": 69, \"herbage_arbore\": 22, \"steppe_piemont\": 6}", "col_proche": "{\"geo_id\": \"GEO_COL_014\", \"nom\": \"T'iqur-ɨlkh\", \"altitude_m\": 2700, \"distance_km\": 73, \"ouverture\": [6, 10]}", "expositions_calculees": "", "id": "LUR_QIREL-TSIDAR_SE", "nom": "Q'irel-Ts'idar", "type": "LUR", "facade": "PLT_SE", "confiance": "haute", "note": "Ville du haut plateau (PLT_SE), à l'est du col T'araq-ɨnkh (RT_009).", "ecarts_corpus": 1, "statut": "[PROPOSITION]"}}, {"type": "Feature", "geometry": {"type": "Point", "coordinates": [38.701, 14.598]}, "properties": {"sur_l_eau": null, "altitude_m": 2008, "denivele_10km_m": 463, "pente_pct": 2.7, "d_halakhel_km": 1698, "d_ocean_km": 126, "d_lac_km": 1437, "d_cours_eau_km": 94, "fleuve_nomme": null, "debit_proche_m3s": 0, "pluie_mm": 83, "T_annuelle_C": 14.3, "Tw_hiver_C": 7.8, "Tn_nuit_hiver_C": -4.2, "facies_arin": "Hiver Jaune", "milieu_site": "desert_pierreux", "milieux_25km": "{\"desert_pierreux\": 100}", "col_proche": "{\"geo_id\": \"GEO_COL_046\", \"nom\": \"Ṣamar-q'ut\", \"altitude_m\": 2200, \"distance_km\": 66, \"ouverture\": [4, 11]}", "expositions_calculees": "aridité (< 150 mm)", "id": "AUX_FOYERS-PURS", "nom": "Foyers-Purs", "type": "AUX", "facade": null, "confiance": "faible", "note": "« hauts plateaux SE », amont de K'uré-tawa (éboulements des routes amont).", "ecarts_corpus": 0, "statut": "[PROPOSITION]"}}, {"type": "Feature", "geometry": {"type": "Point", "coordinates": [38.303, 12.398]}, "properties": {"sur_l_eau": null, "altitude_m": 2580, "denivele_10km_m": 675, "pente_pct": 5.2, "d_halakhel_km": 1874, "d_ocean_km": 339, "d_lac_km": 1294, "d_cours_eau_km": 11, "fleuve_nomme": "Buhlela", "debit_proche_m3s": 7, "pluie_mm": 227, "T_annuelle_C": 11.8, "Tw_hiver_C": 5.8, "Tn_nuit_hiver_C": -4.5, "facies_arin": "Hiver Jaune", "milieu_site": "steppe_piemont", "milieux_25km": "{\"steppe_piemont\": 96}", "col_proche": "{\"geo_id\": \"GEO_COL_048\", \"nom\": \"Nrelat-q'urm\", \"altitude_m\": 2200, \"distance_km\": 83, \"ouverture\": [4, 11]}", "expositions_calculees": "hypoxie légère (> 2 500 m)", "id": "AUX_VOIE-DESNUEES", "nom": "Voie-Desnuées", "type": "AUX", "facade": null, "confiance": "faible", "note": "Pôle iconoclaste des cairns : hautes terres de qoyra (localisation inconnue).", "ecarts_corpus": 0, "statut": "[PROPOSITION]"}}, {"type": "Feature", "geometry": {"type": "Point", "coordinates": [31.004, 10.602]}, "properties": {"sur_l_eau": null, "altitude_m": 1873, "denivele_10km_m": 798, "pente_pct": 4.9, "d_halakhel_km": 1619, "d_ocean_km": 1078, "d_lac_km": 516, "d_cours_eau_km": 70, "fleuve_nomme": null, "debit_proche_m3s": 11, "pluie_mm": 1078, "T_annuelle_C": 16.3, "Tw_hiver_C": 10.7, "Tn_nuit_hiver_C": 2.7, "facies_arin": "hors |'Arin", "milieu_site": "foret_montagne", "milieux_25km": "{\"foret_montagne\": 81, \"herbage_arbore\": 17}", "col_proche": "{\"geo_id\": \"GEO_COL_013\", \"nom\": \"P'etsul-!ama\", \"altitude_m\": 2600, \"distance_km\": 110, \"ouverture\": [5, 10]}", "expositions_calculees": "", "id": "AUX_VOIE-HAUTE", "nom": "Voie-Haute", "type": "AUX", "facade": null, "confiance": "faible", "note": "Pôle orthodoxe (pèlerinage d'altitude vers Hae Ts'i-K'uré, RT_048) : crête voisine du col P'etsul-!ama.", "ecarts_corpus": 0, "statut": "[PROPOSITION]"}}, {"type": "Feature", "geometry": {"type": "Point", "coordinates": [38.797, 13.299]}, "properties": {"sur_l_eau": null, "altitude_m": 2516, "denivele_10km_m": 688, "pente_pct": 0.9, "d_halakhel_km": 1823, "d_ocean_km": 224, "d_lac_km": 1381, "d_cours_eau_km": 5, "fleuve_nomme": "Buhlela", "debit_proche_m3s": 7, "pluie_mm": 88, "T_annuelle_C": 11.8, "Tw_hiver_C": 5.6, "Tn_nuit_hiver_C": -6.4, "facies_arin": "Hiver Jaune", "milieu_site": "desert_pierreux", "milieux_25km": "{\"desert_pierreux\": 87, \"steppe_piemont\": 7}", "col_proche": "{\"geo_id\": \"GEO_COL_046\", \"nom\": \"Ṣamar-q'ut\", \"altitude_m\": 2200, \"distance_km\": 91, \"ouverture\": [4, 11]}", "expositions_calculees": "hypoxie légère (> 2 500 m); aridité (< 150 mm)", "id": "AUX_HAE-KUMEL", "nom": "Hae K'umel", "type": "AUX", "facade": null, "confiance": "faible", "note": "Temple du Foyer-Origine des K'umal : vallées de K'umal-Naqra.", "ecarts_corpus": 0, "statut": "[PROPOSITION]"}}, {"type": "Feature", "geometry": {"type": "Point", "coordinates": [0.057, 5.619]}, "properties": {"sur_l_eau": null, "altitude_m": 7, "denivele_10km_m": 114, "pente_pct": 1.0, "d_halakhel_km": 2272, "d_ocean_km": 2, "d_lac_km": 685, "d_cours_eau_km": 32, "fleuve_nomme": null, "debit_proche_m3s": 40, "pluie_mm": 2656, "T_annuelle_C": 27.5, "Tw_hiver_C": 23.0, "Tn_nuit_hiver_C": 15.0, "facies_arin": "hors |'Arin", "milieu_site": "foret_maree", "milieux_25km": "{\"océan\": 47, \"foret_tropicale_humide\": 43, \"foret_maree\": 11}", "col_proche": "{\"geo_id\": \"GEO_COL_024\", \"nom\": \"Ku-Pámà-Tɨra-te\", \"altitude_m\": 2000, \"distance_km\": 1189, \"ouverture\": [4, 11]}", "expositions_calculees": "tempêtes et houle de rivage", "id": "AUX_KUKEDA-MUKIRI", "nom": "Kù-kèdà yì Mù-Kíri", "type": "AUX", "facade": null, "confiance": "moyenne", "note": "« cité du Mù-Kíri » : chantiers Mù-Kíri du quartier Kù-kíri-jálima de Ku-jálima-rir (LIEUX).", "ecarts_corpus": 0, "statut": "[PROPOSITION]"}}, {"type": "Feature", "geometry": {"type": "Point", "coordinates": [0.057, 5.619]}, "properties": {"sur_l_eau": null, "altitude_m": 7, "denivele_10km_m": 114, "pente_pct": 1.0, "d_halakhel_km": 2272, "d_ocean_km": 2, "d_lac_km": 685, "d_cours_eau_km": 32, "fleuve_nomme": null, "debit_proche_m3s": 40, "pluie_mm": 2656, "T_annuelle_C": 27.5, "Tw_hiver_C": 23.0, "Tn_nuit_hiver_C": 15.0, "facies_arin": "hors |'Arin", "milieu_site": "foret_maree", "milieux_25km": "{\"océan\": 47, \"foret_tropicale_humide\": 43, \"foret_maree\": 11}", "col_proche": "{\"geo_id\": \"GEO_COL_024\", \"nom\": \"Ku-Pámà-Tɨra-te\", \"altitude_m\": 2000, \"distance_km\": 1189, \"ouverture\": [4, 11]}", "expositions_calculees": "tempêtes et houle de rivage", "id": "AUX_FORGES-DES-COQUES", "nom": "Forges-des-Coques (Mù-Kíri)", "type": "AUX", "facade": null, "confiance": "moyenne", "note": "Institution tutélaire Mù-Kíri (chantiers navals de Ku-jálima-rir).", "ecarts_corpus": 0, "statut": "[PROPOSITION]"}}, {"type": "Feature", "geometry": {"type": "Point", "coordinates": [-7.497, 28.206]}, "properties": {"sur_l_eau": null, "altitude_m": 32, "denivele_10km_m": 139, "pente_pct": 2.5, "d_halakhel_km": 2, "d_ocean_km": 274, "d_lac_km": 2246, "d_cours_eau_km": 109, "fleuve_nomme": null, "debit_proche_m3s": 7, "pluie_mm": 283, "T_annuelle_C": 20.0, "Tw_hiver_C": 10.5, "Tn_nuit_hiver_C": 0.9, "facies_arin": "Hiver de Vapeur", "milieu_site": "desert_pierreux", "milieux_25km": "{\"steppe_piemont\": 58, \"mer Halakhel\": 37, \"desert_pierreux\": 5}", "col_proche": "{\"geo_id\": \"GEO_COL_038\", \"nom\": \"Hlenik-k'eso\", \"altitude_m\": 2000, \"distance_km\": 628, \"ouverture\": [4, 11]}", "expositions_calculees": "brouillards d'évaporation (Hiver de Vapeur); tempêtes et houle de rivage", "id": "AUX_KISRALOM", "nom": "Kisralom", "type": "AUX", "facade": null, "confiance": "haute", "note": "Tribunal, siège à Kralekh-Aktrik.", "ecarts_corpus": 0, "statut": "[PROPOSITION]"}}, {"type": "Feature", "geometry": {"type": "Point", "coordinates": [-7.497, 28.206]}, "properties": {"sur_l_eau": null, "altitude_m": 32, "denivele_10km_m": 139, "pente_pct": 2.5, "d_halakhel_km": 2, "d_ocean_km": 274, "d_lac_km": 2246, "d_cours_eau_km": 109, "fleuve_nomme": null, "debit_proche_m3s": 7, "pluie_mm": 283, "T_annuelle_C": 20.0, "Tw_hiver_C": 10.5, "Tn_nuit_hiver_C": 0.9, "facies_arin": "Hiver de Vapeur", "milieu_site": "desert_pierreux", "milieux_25km": "{\"steppe_piemont\": 58, \"mer Halakhel\": 37, \"desert_pierreux\": 5}", "col_proche": "{\"geo_id\": \"GEO_COL_038\", \"nom\": \"Hlenik-k'eso\", \"altitude_m\": 2000, \"distance_km\": 628, \"ouverture\": [4, 11]}", "expositions_calculees": "brouillards d'évaporation (Hiver de Vapeur); tempêtes et houle de rivage", "id": "AUX_CERCLE-SANS-JURON", "nom": "Cercle-Sans-Juron", "type": "AUX", "facade": null, "confiance": "faible", "note": "« pôle doctrinal cristallisé chez les Kisrali » : rattaché au siège Kisrali.", "ecarts_corpus": 0, "statut": "[PROPOSITION]"}}, {"type": "Feature", "geometry": {"type": "Point", "coordinates": [28.901, 27.615]}, "properties": {"sur_l_eau": null, "altitude_m": 27, "denivele_10km_m": 62, "pente_pct": 0.1, "d_halakhel_km": 23, "d_ocean_km": 360, "d_lac_km": 781, "d_cours_eau_km": 2, "fleuve_nomme": "Abnīqa", "debit_proche_m3s": 4406, "pluie_mm": 151, "T_annuelle_C": 20.3, "Tw_hiver_C": 10.9, "Tn_nuit_hiver_C": -0.4, "facies_arin": "Hiver de Vapeur", "milieu_site": "plaine_alluviale", "milieux_25km": "{\"plaine_alluviale\": 73, \"desert_pierreux\": 15, \"depression_saline\": 10}", "col_proche": "{\"geo_id\": \"GEO_COL_002\", \"nom\": \"Ṭanīkhūr\", \"altitude_m\": 3200, \"distance_km\": 1337, \"ouverture\": [7, 8]}", "expositions_calculees": "crues (lit majeur); brouillards d'évaporation (Hiver de Vapeur)", "id": "AUX_DIMLAS", "nom": "Dimlāš", "type": "AUX", "facade": null, "confiance": "haute", "note": "Composante Dimlāš-Abnaq d'Abnaqil.", "ecarts_corpus": 0, "statut": "[PROPOSITION]"}}, {"type": "Feature", "geometry": {"type": "Point", "coordinates": [28.359, 27.657]}, "properties": {"sur_l_eau": null, "altitude_m": 12, "denivele_10km_m": 72, "pente_pct": 0.6, "d_halakhel_km": 4, "d_ocean_km": 361, "d_lac_km": 752, "d_cours_eau_km": 2, "fleuve_nomme": "Abnīqa", "debit_proche_m3s": 0, "pluie_mm": 139, "T_annuelle_C": 20.4, "Tw_hiver_C": 11.0, "Tn_nuit_hiver_C": -0.5, "facies_arin": "Hiver de Vapeur", "milieu_site": "plaine_alluviale", "milieux_25km": "{\"mer Halakhel\": 47, \"plaine_alluviale\": 30, \"depression_saline\": 20}", "col_proche": "{\"geo_id\": \"GEO_COL_005\", \"nom\": \"Qaṣūl-tɨra\", \"altitude_m\": 2700, \"distance_km\": 1305, \"ouverture\": [6, 10]}", "expositions_calculees": "brouillards d'évaporation (Hiver de Vapeur); tempêtes et houle de rivage; aridité (< 150 mm)", "id": "AUX_VOIE-PURE", "nom": "Voie-Pure-des-Vallées", "type": "AUX", "facade": null, "confiance": "haute", "note": "Siège aux quais lettrés d'Abnīqa.", "ecarts_corpus": 0, "statut": "[PROPOSITION]"}}, {"type": "Feature", "geometry": {"type": "Point", "coordinates": [28.359, 27.657]}, "properties": {"sur_l_eau": null, "altitude_m": 12, "denivele_10km_m": 72, "pente_pct": 0.6, "d_halakhel_km": 4, "d_ocean_km": 361, "d_lac_km": 752, "d_cours_eau_km": 2, "fleuve_nomme": "Abnīqa", "debit_proche_m3s": 0, "pluie_mm": 139, "T_annuelle_C": 20.4, "Tw_hiver_C": 11.0, "Tn_nuit_hiver_C": -0.5, "facies_arin": "Hiver de Vapeur", "milieu_site": "plaine_alluviale", "milieux_25km": "{\"mer Halakhel\": 47, \"plaine_alluviale\": 30, \"depression_saline\": 20}", "col_proche": "{\"geo_id\": \"GEO_COL_005\", \"nom\": \"Qaṣūl-tɨra\", \"altitude_m\": 2700, \"distance_km\": 1305, \"ouverture\": [6, 10]}", "expositions_calculees": "brouillards d'évaporation (Hiver de Vapeur); tempêtes et houle de rivage; aridité (< 150 mm)", "id": "AUX_HAMUQAS", "nom": "Ḥamūqaš", "type": "AUX", "facade": null, "confiance": "haute", "note": "Temple Ḥamūqaš, composante d'Abnīqa.", "ecarts_corpus": 0, "statut": "[PROPOSITION]"}}, {"type": "Feature", "geometry": {"type": "Point", "coordinates": [4.407, 17.796]}, "properties": {"sur_l_eau": null, "altitude_m": 1596, "denivele_10km_m": 676, "pente_pct": 7.2, "d_halakhel_km": 918, "d_ocean_km": 1227, "d_lac_km": 772, "d_cours_eau_km": 100, "fleuve_nomme": null, "debit_proche_m3s": 17, "pluie_mm": 1046, "T_annuelle_C": 15.3, "Tw_hiver_C": 8.1, "Tn_nuit_hiver_C": 0.1, "facies_arin": "Hiver Gris", "milieu_site": "foret_montagne", "milieux_25km": "{\"foret_montagne\": 98}", "col_proche": "{\"geo_id\": \"GEO_COL_028\", \"nom\": \"Ku-Ténɨlkh-te\", \"altitude_m\": 2300, \"distance_km\": 51, \"ouverture\": [5, 10]}", "expositions_calculees": "", "id": "AUX_TAMA-ARA", "nom": "!Tama-|'Ara", "type": "AUX", "facade": null, "confiance": "haute", "note": "Ordre religieux, siège à !Tamar-||Khu.", "ecarts_corpus": 0, "statut": "[PROPOSITION]"}}, {"type": "Feature", "geometry": {"type": "Point", "coordinates": [38.956, 15.245]}, "properties": {"sur_l_eau": null, "altitude_m": 2299, "denivele_10km_m": 728, "pente_pct": 3.1, "d_halakhel_km": 1661, "d_ocean_km": 63, "d_lac_km": 1495, "d_cours_eau_km": 170, "fleuve_nomme": null, "debit_proche_m3s": 0, "pluie_mm": 106, "T_annuelle_C": 12.2, "Tw_hiver_C": 5.6, "Tn_nuit_hiver_C": -6.3, "facies_arin": "Hiver Jaune", "milieu_site": "desert_pierreux", "milieux_25km": "{\"desert_pierreux\": 54, \"steppe_piemont\": 46}", "col_proche": "{\"geo_id\": \"GEO_COL_045\", \"nom\": \"Ḥazīr-k'ama\", \"altitude_m\": 2100, \"distance_km\": 23, \"ouverture\": [4, 11]}", "expositions_calculees": "aridité (< 150 mm)", "id": "AUX_VOIE-COMPTABLE", "nom": "Voie-Comptable", "type": "AUX", "facade": null, "confiance": "moyenne", "note": "Pôle réformateur K'uré-Neša-ña : P'i-K'uré-Neša (Voie Comptable).", "ecarts_corpus": 0, "statut": "[PROPOSITION]"}}, {"type": "Feature", "geometry": {"type": "Point", "coordinates": [42.892, 11.744]}, "properties": {"sur_l_eau": null, "altitude_m": -15, "denivele_10km_m": 994, "pente_pct": 4.1, "d_halakhel_km": 2266, "d_ocean_km": 3, "d_lac_km": 1743, "d_cours_eau_km": 36, "fleuve_nomme": null, "debit_proche_m3s": 0, "pluie_mm": 298, "T_annuelle_C": 27.5, "Tw_hiver_C": 21.7, "Tn_nuit_hiver_C": 12.3, "facies_arin": "hors |'Arin", "milieu_site": "littoral_rocheux", "milieux_25km": "{\"steppe_piemont\": 46, \"océan\": 37, \"desert_pierreux\": 8, \"littoral_rocheux\": 8}", "col_proche": "{\"geo_id\": \"GEO_COL_044\", \"nom\": \"ʿUbayl-t'iq\", \"altitude_m\": 2000, \"distance_km\": 488, \"ouverture\": [4, 11]}", "expositions_calculees": "tempêtes et houle de rivage; éboulements, glissements (versants raides)", "id": "AUX_PORTS-TNAYEL", "nom": "Ports T'nayel SE", "type": "AUX", "facade": null, "confiance": "moyenne", "note": "Façade portuaire T'nayel : T'naya-Ḥaem.", "ecarts_corpus": 0, "statut": "[PROPOSITION]"}}, {"type": "Feature", "geometry": {"type": "Point", "coordinates": [24.088, 6.949]}, "properties": {"sur_l_eau": "lac", "altitude_m": null, "denivele_10km_m": 502, "pente_pct": 1.4, "d_halakhel_km": 1844, "d_ocean_km": 1619, "d_lac_km": 0, "d_cours_eau_km": 59, "fleuve_nomme": null, "debit_proche_m3s": 3, "pluie_mm": 1283, "T_annuelle_C": 27.5, "Tw_hiver_C": 22.7, "Tn_nuit_hiver_C": 14.7, "facies_arin": "hors |'Arin", "milieu_site": "eaux_lacustres", "milieux_25km": "{\"eaux_lacustres\": 76, \"herbage_arbore\": 15, \"foret_tropicale_humide\": 10}", "col_proche": "{\"geo_id\": \"GEO_COL_008\", \"nom\": \"Šaqra-t'em\", \"altitude_m\": 2400, \"distance_km\": 614, \"ouverture\": [5, 10]}", "expositions_calculees": "", "id": "AUX_SANUBE-MUSUKU", "nom": "Sa-nùbè yì Mù-Sùkú", "type": "AUX", "facade": null, "confiance": "moyenne", "note": "Temple du Sanctuaire du Fond : pesée rituelle au banc Ku-Sùkú-nà.", "ecarts_corpus": 0, "statut": "[PROPOSITION]"}}, {"type": "Feature", "geometry": {"type": "Point", "coordinates": [-21.998, 34.502]}, "properties": {"sur_l_eau": "océan", "altitude_m": null, "denivele_10km_m": 441, "pente_pct": 2.5, "d_halakhel_km": 1484, "d_ocean_km": 0, "d_lac_km": 3477, "d_cours_eau_km": 1110, "fleuve_nomme": null, "debit_proche_m3s": 0, "pluie_mm": 447, "T_annuelle_C": 17.4, "Tw_hiver_C": 6.4, "Tn_nuit_hiver_C": -1.6, "facies_arin": "hors |'Arin", "milieu_site": "océan", "milieux_25km": "{\"océan\": 100}", "col_proche": "{\"geo_id\": \"GEO_COL_019\", \"nom\": \"Ku-Mázì-Klek-te\", \"altitude_m\": 1900, \"distance_km\": 1735, \"ouverture\": [4, 11]}", "expositions_calculees": "tempêtes et houle de rivage", "id": "AUX_PORTS-EXTERNES-NO", "nom": "Ports externes NO", "type": "AUX", "facade": null, "confiance": "faible", "note": "Marchands océaniques externes : point de sortie au NO de la carte.", "ecarts_corpus": 0, "statut": "[PROPOSITION]"}}]}